 2013  519 2003 23.4 L   3.783 -71.308  4.4  RSN  8 0.6 3.4LRSN                1
 GAP=237        1.02       4.9     9.2  8.3 -0.2292E+02  0.3390E+02 -0.1165E+02E
 Epicentro: PUERTO GAITAN - META                                               3
 ACTION:UPD 14-01-08 09:47 OP:ep   STATUS:               ID:20130519200323 L   I
 OLDACT:UP  13-06-18 08:42 OP:ep   STATUS:               ID:20130519200323 L   3
 2013-05-19-2000-00M.COL___256                                                 6
 STAT SP IPHASW D HRMM SECON CODA AMPLIT PERI AZIMU VELO AIN AR TRES W  DIS CAZ7
 GUA  SZ EP   1   20 3 53.35                              56   -0.41 8  201 227 
 GUA  SZ EPg  1   20 3 54.56                              90    0.11 8  201 227 
 GUA  SN ES   1   20 4 17.85                              56    0.45 8  201 227 
 GUA  SZ I        20 4 21.38       651.9 0.24             37            201 227 
 YOP  SZ EP       20 3 56.34                              56    0.9010  213 325 
 YOP  SN ES   1   20 4 21.23                              56    0.83 7  213 325 
 YOP  SZ I        20 4 23.81       375.9 0.28             37            213 325 
 VIL  SZ EP       20 4  2.27                              56    0.01 9  267 278 
 VIL  SE ES   1   20 4 32.05                              56   -0.48 7  267 278 
 VIL  SZ I        20 4 38.64       572.0 0.36             37            267 278 
 CHI  HZ EP   2   20 4  4.71                              56   -0.08 4  285 289 
 CHI  HZ EPg      20 4  8.04                              90    0.40 9  285 289 
 CHI  HN ES   1   20 4 35.87                              56   -1.16 7  285 289 
 CHI  HZ I        20 4 38.65       117.6 0.17             37            285 289 
 TAM  HZ EP       20 4  5.49                              55   -0.49 9  298 350 
 TAM  HZ EPg      20 4  8.79                              90   -0.47 9  298 350 
 TAM  HE ES   1   20 4 39.31                              55    0.15 6  298 350 
 TAM  HZ I        20 4 55.85       103.7 0.22             36            298 350 
 RUS  HZ EP   2   20 4  7.12                              55   -0.28 4  305 320 
 RUS  HZ I        20 4 55.46        51.3 0.44             36            305 320 
 BAR2 SZ EP   1   20 4 14.42                              55   -1.13 5  374 326 
 FLO2 HN ES   4   20 5 48.41                              55   15.94 0  541 243 
 FLO2 HZ I        20 5 58.05        41.8 0.52             36            541 243 
                                                                                
 2013  521 0652 35.1 L   3.809 -71.641  0.0  RSN  4 0.5 2.5LRSN                1
 GAP=245        1.00       5.9    18.7 15.5 -0.8466E+02  0.2489E+03 -0.6887E+02E
 Epicentro: PUERTO GAITAN - META                                               3
 ACTION:UPD 14-01-08 09:47 OP:ep   STATUS:               ID:20130521065235 L   I
 2013-05-21-0648-50M.COL___218                                                 6
 STAT SP IPHASW D HRMM SECON CODA AMPLIT PERI AZIMU VELO AIN AR TRES W  DIS CAZ7
 GUA  SZ EP   1    653  3.29                              47    0.10 8  178 218 
 GUA  SN ES   1    653 25.10                              47    0.01 8  178 218 
 GUA  SN I         653 26.76        91.1 0.30             90            178 218 
 YOP  SZ EP        653  4.32                              37   -0.7910  192 333 
 YOP  SZ I         653  5.16        14.1 0.42             90            192 333 
 YOP  SN ES        653 28.69                              37    0.1910  192 333 
 VIL  SN ES        653 37.07                              37   -0.12 9  230 278 
 VIL  SN I         653 53.17        45.6 0.34             90            230 278 
 RUS  HZ EP        653 17.64                              37    0.95 9  280 325 
 RUS  HN ES        653 49.03                              37   -0.08 9  280 325 
                                                                                
 2013  521 2149 45.5 L   3.727 -71.087 22.1  RSN 18 0.5 3.5LRSN 3.9WRSN        1
 SPEC AVERAGE  MO 14.9 ST  7.6 OM  3.4 f0 1.67 R0.9884 AL 1.83 WI 85.4 MW  3.9 3
 SPEC SD       MO  0.5 ST  6.9 OM  0.6 f00.619 R0.2466 AL      WI      MW  0.4 3
 GAP=228        0.74       3.5     6.8  8.3 -0.1296E+02  0.3167E+02 -0.1380E+02E
 Epicentro: SAN JOSE DE OCUNE - VICHADA                                        3
 SPEC VIL SH N MO 15.6 ST 21.2 OM  4.0 f0 1.62 R0.9593 AL 1.94 WI145.0 MW  4.4 3
 SPEC VIL SH N T215054 K 0.000 GD  171 VS 4.20 DE 3.20 Q0300.0 QA 0.60 VS 4.20 3
 SPEC YOP SH N MO 15.3 ST  9.5 OM  3.7 f0 1.62 R0.9593 AL 2.02 WI139.7 MW  4.1 3
 SPEC YOP SH N T215042 K 0.000 GD  152 VS 4.20 DE 3.20 Q0300.0 QA 0.60 VS 4.20 3
 SPEC PTB HH N MO 14.4 ST0.791 OM  2.7 f0 1.35 R1.1511 AL 1.81 WI 69.0 MW  3.6 3
 SPEC PTB HH N T215140 K 0.000 GD  220 VS 4.20 DE 3.20 Q0300.0 QA 0.60 VS 4.20 3
 SPEC RUS HH N MO 15.0 ST  2.6 OM  3.3 f0 1.35 R1.1511 AL 1.95 WI 45.0 MW  3.9 3
 SPEC RUS HH N T2151 4 K 0.000 GD  180 VS 4.20 DE 3.20 Q0300.0 QA 0.60 VS 4.20 3
 SPEC TAM HH N MO 15.0 ST  2.9 OM  3.4 f0 1.31 R1.1863 AL 1.45 WI 67.6 MW  4.0 3
 SPEC TAM HH N T215057 K 0.000 GD  176 VS 4.20 DE 3.20 Q0300.0 QA 0.60 VS 4.20 3
 SPEC PCONHH N MO 15.6 ST 21.5 OM  3.8 f0 1.68 R0.9250 AL 2.14 WI107.8 MW  4.3 3
 SPEC PCONHH N T215226 K 0.000 GD  246 VS 4.20 DE 3.20 Q0300.0 QA 0.60 VS 4.20 3
 SPEC HEL HH N MO 14.5 ST  1.3 OM  2.7 f0 1.56 R0.9962 AL 1.84 WI103.1 MW  3.6 3
 SPEC HEL HH N T215154 K 0.000 GD  237 VS 4.20 DE 3.20 Q0300.0 QA 0.60 VS 4.20 3
 SPECGUY2CHH N MO 14.7 ST  2.8 OM  3.0 f0 1.62 R0.9608 AL 3.11 WI 82.1 MW  3.8 3
 SPECGUY2CHH N T215134 K 0.000 GD  224 VS 4.20 DE 3.20 Q0300.0 QA 0.60 VS 4.20 3
 SPEC NOR HH N MO 14.4 ST  4.5 OM  2.7 f0 2.43 R0.6395 AL 1.51 WI 57.2 MW  3.6 3
 SPEC NOR HH N T215131 K 0.000 GD  215 VS 4.20 DE 3.20 Q0300.0 QA 0.60 VS 4.20 3
 SPEC PAM SH N MO 14.6 ST  6.8 OM  2.9 f0 2.41 R0.6448 AL 2.27 WI 90.8 MW  3.7 3
 SPEC PAM SH N T215126 K 0.000 GD  209 VS 4.20 DE 3.20 Q0300.0 QA 0.60 VS 4.20 3
 SPEC PRA HH N MO 14.5 ST  1.2 OM  2.8 f0 1.48 R1.0500 AL 1.93 WI 75.5 MW  3.6 3
 SPEC PRA HH N T215122 K 0.000 GD  205 VS 4.20 DE 3.20 Q0300.0 QA 0.60 VS 4.20 3
 SPEC FLO2HH N MO 15.2 ST  2.5 OM  3.4 f0 1.13 R1.3752 AL 1.81 WI156.2 MW  4.1 3
 SPEC FLO2HH N T2152 5 K 0.000 GD  236 VS 4.20 DE 3.20 Q0300.0 QA 0.60 VS 4.20 3
 SPEC BRR HH N MO 14.7 ST  1.2 OM  3.0 f0 1.23 R1.2634 AL 1.26 WI 82.9 MW  3.8 3
 SPEC BRR HH N T215133 K 0.000 GD  217 VS 4.20 DE 3.20 Q0300.0 QA 0.60 VS 4.20 3
 SPEC BAR2SH Z MO 14.8 ST  2.0 OM  3.1 f0 1.40 R1.1100 AL 1.94 WI 53.8 MW  3.8 3
 SPEC BAR2SH Z T215125 K 0.000 GD  198 VS 4.20 DE 3.20 Q0300.0 QA 0.60 VS 4.20 3
 SPEC CHI HH N MO 15.1 ST 10.4 OM  3.5 f0 1.86 R0.8355 AL 2.07 WI 61.4 MW  4.0 3
 SPEC CHI HH N T215057 K 0.000 GD  176 VS 4.20 DE 3.20 Q0300.0 QA 0.60 VS 4.20 3
 SPEC GUA SH N MO 15.1 ST 26.0 OM  3.5 f0 2.68 R0.5799 AL 1.58 WI 26.5 MW  4.0 3
 SPEC GUA SH N T215039 K 0.000 GD  146 VS 4.20 DE 3.20 Q0300.0 QA 0.60 VS 4.20 3
 ACTION:UPD 14-01-08 09:48 OP:ep   STATUS:               ID:20130521214945 L   I
 2013-05-21-2150-00M.COL___259                                                 6
 STAT SP IPHASW D HRMM SECON CODA AMPLIT PERI AZIMU VELO AIN AR TRES W  DIS CAZ7
 GUA  SZ EP       2150 15.83                              61   -0.2710  215 233 
 GUA  SN ES   1   2150 40.43                              61    0.43 7  215 233 
 GUA  SZ I        2150 49.78       568.2 0.32            108            215 233 
 YOP  SZ EP       2150 18.87                              61    0.4510  233 321 
 YOP  SE ES       2150 44.78                              61    0.6510  233 321 
 YOP  SZ I        2150 45.97       418.4 0.22            106            233 321 
 VIL  SZ EP   1   2150 25.49                              60   -0.37 7  293 278 
 VIL  SN ES       2150 56.71                              60   -0.66 9  293 278 
 VIL  SZ I        2151  5.65       476.2 0.42            101            293 278 
 TAM  HZ EP       2150 28.14                              60    0.29 8  310 345 
 TAM  HE ES       2151  1.01                              60    0.10 8  310 345 
 TAM  HZ I        2151  2.97       146.8 0.38            100            310 345 
 CHI  HZ EP   1   2150 27.61                              60   -0.76 6  310 289 
 CHI  HN ES   4   2150 58.93                              60   -2.91 0  310 289 
 CHI  HZ I        2151 18.57       268.1 0.38            100            310 289 
 RUS  HZ EP   1   2150 29.59                              60   -0.85 6  326 317 
 RUS  HN ES       2151  5.24                              60   -0.29 8  326 317 
 RUS  HZ I        2151 22.78       110.6 0.46             99            326 317 
 BAR2 SZ EP   4   2150 44.39                              60    6.02 0  393 324 
 PRA  HZ EP   2   2150 41.67                              60   -0.06 3  422 270 
 PRA  HN IPg      2150 51.26                              91    1.16 6  422 270 
 PRA  HN ES       2151 25.48                              60   -0.14 6  422 270 
 PRA  HZ I        2151 42.54        68.1 0.42             94            422 270 
 PAM  SZ EP   1   2150 43.71                              60   -0.49 5  438 336 
 PAM  SN IPg      2150 53.03                              91    0.10 6  438 336 
 PAM  SZ I        2151 53.40        66.7 0.34                           438 336 
 NOR  HZ EP   4   2150 46.50                              60   -0.70 0  466 296 
 NOR  HN ES   4   2151 32.42                              60   -2.94 0  466 296 
 NOR  HZ I        2151 53.17        35.0 0.50                           466 296 
 BRR  HN ES       2151 36.99                              60    0.12 6  474 322 
 BRR  HN I        2152  2.25        97.4 0.40                           474 322 
 PTB  HZ EP   2   2150 49.60                              60   -0.01 3  486 310 
 PTB  HZ IPg  1   2150 58.84                              91   -0.93 4  486 310 
 PTB  HZ I        2151 59.99        29.2 0.50             90            486 310 
 GUY2CHZ EP       2150 51.96                              60   -0.27 5  503 289 
 GUY2CHN ES   4   2151 39.47                              60   -4.84 0  503 289 
 GUY2CHZ I        2152  6.58        39.3 0.50                           503 289 
 OCA  HZ EP   2   2150 58.41                              60   -0.10 2  557 334 
 OCA  HZ I        2152 25.89        46.7 0.44             90            557 334 
 FLO2 HZ EP   1   2150 59.63                              60    0.84 3  560 245 
 FLO2 HN IPg      2151 10.69                              91   -0.33 4  560 245 
 FLO2 HN ES   4   2152 11.29                              60   15.31 0  560 245 
 HEL  HN ES   4   2151 54.27                              60   -3.02 0  563 299 
 HEL  HZ I        2152 25.05        11.6 0.46             90            563 299 
 SDV  BZ EP   2   2150 59.93                              60   -0.53 2  572   5 
 YOT  HZ EP   4   2151  0.35                              60   -1.56 0  585 273 
 YOT  HN ES   4   2151 56.91                              60   -4.63 0  585 273 
 PTLC HZ EP   4   2151 16.14                              60   12.89 0  597 224 
 PTLC HN ES   4   2152 22.44                              60   18.51 0  597 224 
 PCON HZ EP   2   2151  5.94                              60    0.33 2  610 255 
 PCON HN IPg      2151 19.29                              91    0.15 3  610 255 
 PCON HZ I        2152 36.07        49.3 0.42             90            610 255 
 SOTA HZ EP   4   2151  9.15                              60    0.14 0  638 254 
 SOTA HN ES   4   2152 38.92                              60   24.74 0  638 254 
 SOTA HZ I        2152 55.94        29.4 0.68             90            638 254 
                                                                                
 2013  523 1034 10.0 L   3.810 -71.466  5.7  RSN  7 0.7 2.2LRSN                1
 GAP=230        0.85       9.9    13.7 11.4 -0.9649E+02  0.8072E+02 -0.4382E+02E
 Epicentro: PUERTO GAITAN - META                                               3
 ACTION:UPD 14-01-08 09:48 OP:ep   STATUS:               ID:20130523103411 L   I
 OLDACT:UP  13-06-18 08:43 OP:ep   STATUS:               ID:20130523103411 L   3
 2013-05-23-1030-00M.COL___259                                                 6
 STAT SP IPHASW D HRMM SECON CODA AMPLIT PERI AZIMU VELO AIN AR TRES W  DIS CAZ7
 GUA  SN ES   3   1035  0.23                              56   -1.21 2  190 223 
 YOP  SZ EPg  1   1034 40.92                              90   -0.19 6  201 328 
 YOP  SE ES   1   1035  3.72                              56   -0.29 6  201 328 
 YOP  SZ I        1035  6.47        32.2 0.24             37            201 328 
 VIL  SN ES   1   1035 16.02                              56    1.13 6  250 278 
 CHI  HZ EP   4   1034 51.45                              56    2.45 0  267 290 
 CHI  HZ EPg  4   1034 54.82                              90    3.32 0  267 290 
 CHI  HN ES   1   1035 18.65                              56   -0.80 6  267 290 
 CHI  HZ I        1035 34.85        18.6 0.58             36            267 290 
 RUS  HZ EP   3   1034 52.86                              56    0.70 2  292 322 
 RUS  HN ES   4   1035 22.78                              56   -2.29 0  292 322 
 RUS  HZ I        1035 39.10         4.6 0.64             36            292 322 
 TAM  HN ES   1   1035 24.47                              55    0.23 5  293 353 
 PRA  HZ EP   1   1035  2.65                              55    0.15 5  380 269 
 PRA  HN ES   4   1035 45.62                              55    2.15 0  380 269 
 PRA  HZ I        1036  8.10         7.9 0.32             36            380 269 
                                                                                
 2013  523 1140 53.5 L   3.786 -71.453  0.0  RSN  8 0.6 2.7LRSN 3.2WRSN        1
 SPEC AVERAGE  MO 13.9 ST  2.4 OM  3.3 f0 2.75 R0.5701 AL 1.64 WI 49.8 MW  3.2 3
 SPEC SD       MO  0.2 ST  1.6 OM  1.0 f00.275 R0.0557 AL      WI      MW  0.1 3
 GAP=192        0.97       4.9     7.3  8.3 -0.1634E+02  0.2714E+02 -0.1358E+02E
 Epicentro: PUERTO GAITAN - META                                               3
 SPEC TAM HH E MO 14.0 ST  2.5 OM  2.4 f0 2.70 R0.5756 AL 1.60 WI 53.7 MW  3.3 3
 SPEC TAM HH E T1142 8 K 0.000 GD  171 VS 4.20 DE 3.20 Q0300.0 QA 0.60 VS 4.20 3
 SPEC PRA HH E MO 13.6 ST0.928 OM  1.9 f0 2.74 R0.5672 AL 1.92 WI 62.2 MW  3.0 3
 SPEC PRA HH E T114226 K 0.000 GD  195 VS 4.20 DE 3.20 Q0300.0 QA 0.60 VS 4.20 3
 SPEC GUA SH N MO 14.1 ST  5.1 OM  2.6 f0 3.17 R0.4902 AL 1.45 WI 33.9 MW  3.4 3
 SPEC GUA SH N T114145 K 0.000 GD  137 VS 4.20 DE 3.20 Q0300.0 QA 0.60 VS 4.20 3
 SPEC CHI HH E MO 13.9 ST  1.3 OM  2.3 f0 2.40 R0.6475 AL 1.57 WI 49.3 MW  3.2 3
 SPEC CHI HH E T1142 2 K 0.000 GD  164 VS 4.20 DE 3.20 Q0300.0 QA 0.60 VS 4.20 3
 ACTION:UP  14-01-08 09:48 OP:ep   STATUS:               ID:20130523114053 L   I
 OLDACT:UPD 13-06-18 14:42 OP:ep   STATUS:               ID:20130523114053 L   3
 2013-05-23-1140-00M.COL___259                                                 6
 STAT SP IPHASW D HRMM SECON CODA AMPLIT PERI AZIMU VELO AIN AR TRES W  DIS CAZ7
 GUA  SZ EP   1   1141 22.60                              37   -0.48 8  189 224 
 GUA  SN ES   1   1141 46.32                              37    0.15 8  189 224 
 GUA  SZ I        1141 55.03        99.1 0.26             37            189 224 
 YOP  SZ EP       1141 24.71                              37   -0.3210  204 328 
 YOP  SN ES   1   1141 49.29                              37   -0.34 7  204 328 
 YOP  SZ I        1141 52.50        54.0 0.24             37            204 328 
 VIL  SZ EP   4   1141 31.80                              37    0.81 0  251 278 
 VIL  SN ES   1   1142  1.59                              37    1.35 7  251 278 
 VIL  SZ I        1142 13.05       103.6 0.34             37            251 278 
 CHI  HZ EP   1   1141 33.15                              37   -0.45 7  270 290 
 CHI  HE ES       1142  4.38                              37   -0.52 9  270 290 
 CHI  HZ I        1142 20.26        29.0 0.56             36            270 290 
 TAM  HE ES   1   1142 10.48                              36    0.65 6  295 353 
 TAM  HZ I        1142 24.42        28.1 0.32             36            295 353 
 PRA  HZ EP   1   1141 48.03                              36    1.03 5  381 269 
 PRA  HE ES   1   1142 28.98                              36    0.24 5  381 269 
 PRA  HZ I        1142 53.49        14.6 0.32             36            381 269 
 ELOV BZ EP   4   1141 55.16                              36    3.81 0  417  31 
 ELOV BZ ES   1   1142 37.13                              36    0.63 5  417  31 
 GUY2CHN ES   1   1142 47.03                              36   -0.42 4  462 290 
 GUY2CHZ I        1143 14.36         4.4 0.62                           462 290 
                                                                                
 2013  524 1416 24.5 L   3.785 -71.328  4.1  RSN  6 0.5 2.6LRSN 3.2WRSN        1
 SPEC AVERAGE  MO 13.9 ST  1.5 OM  3.6 f0 2.29 R0.6919 AL 1.77 WI 30.4 MW  3.2 3
 SPEC SD       MO  0.1 ST0.887 OM  1.2 f00.314 R0.1047 AL      WI      MW  0.1 3
 GAP=236        0.73       4.7    11.3 10.1 -0.3346E+02  0.6534E+02 -0.3037E+02E
 Epicentro: PUERTO GAITAN - META                                               3
 SPEC TAM HH N MO 13.8 ST  1.2 OM  2.2 f0 2.50 R0.6216 AL 1.72 WI 35.6 MW  3.2 3
 SPEC TAM HH N T141738 K 0.000 GD  172 VS 4.20 DE 3.20 Q0300.0 QA 0.60 VS 4.20 3
 SPEC RUS HH N MO 13.8 ST0.509 OM  2.2 f0 1.85 R0.8400 AL 2.30 WI 40.6 MW  3.2 3
 SPEC RUS HH N T141739 K 0.000 GD  174 VS 4.20 DE 3.20 Q0300.0 QA 0.60 VS 4.20 3
 SPEC GUA SH N MO 14.1 ST  2.6 OM  2.6 f0 2.53 R0.6142 AL 1.29 WI 14.9 MW  3.4 3
 SPEC GUA SH N T141717 K 0.000 GD  141 VS 4.20 DE 3.20 Q0300.0 QA 0.60 VS 4.20 3
 ACTION:UPD 14-01-08 09:48 OP:ep   STATUS:               ID:20130524141624 L   I
 2013-05-24-1410-00M.COL___259                                                 6
 STAT SP IPHASW D HRMM SECON CODA AMPLIT PERI AZIMU VELO AIN AR TRES W  DIS CAZ7
 GUA  SZ EPg  1   1416 55.00                              90   -0.32 6  199 227 
 GUA  SN ES   1   1417 18.48                              56    0.26 6  199 227 
 GUA  SZ I        1417 21.36        84.8 0.20             56            199 227 
 YOP  SZ EP   1   1416 57.21                              56    0.83 6  212 325 
 YOP  SN ES   1   1417 21.55                              56    0.35 6  212 325 
 YOP  SZ I        1417 25.40        68.4 0.24             56            212 325 
 VIL  SN ES   1   1417 33.16                              56   -0.01 6  265 278 
 VIL  SZ I        1417 39.56        56.7 0.52             55            265 278 
 TAM  HN ES   1   1417 39.91                              55   -0.25 5  298 350 
 TAM  HZ I        1417 47.85        26.0 0.48             55            298 350 
 RUS  HZ EP   1   1417  7.71                              55   -0.61 5  304 320 
 RUS  HN ES   1   1417 41.90                              55   -0.57 5  304 320 
 RUS  HZ I        1417 56.51         8.5 0.46             55            304 320 
 FLO2 HZ EPg  1   1417 46.38                              90   -0.46 3  539 243 
                                                                                
