 2013  528 0336 48.5 L   3.719 -71.385  6.3  RSN  6 0.6 2.4LRSN                1
 GAP=235        0.91       5.0    10.9 15.3 -0.3212E+02  0.5322E+02 -0.1531E+02E
 Epicentro: PUERTO GAITAN - META                                               3
 ACTION:UP  14-01-08 09:49 OP:ep   STATUS:               ID:20130528033648 L   I
 OLDACT:UPD 13-06-18 14:43 OP:ep   STATUS:               ID:20130528033648 L   3
 2013-05-28-0330-00M.COL___261                                                 6
 STAT SP IPHASW D HRMM SECON CODA AMPLIT PERI AZIMU VELO AIN AR TRES W  DIS CAZ7
 GUA  SZ EP   2    337 16.60                              56   -0.67 5  190 227 
 GUA  SN ES        337 39.67                              56   -0.0410  190 227 
 GUA  SZ I         337 43.77        56.1 0.30             37            190 227 
 YOP  SZ EP   2    337 19.10                              56   -1.37 5  214 328 
 YOP  SN ES   2    337 44.23                              56   -1.18 5  214 328 
 YOP  SZ I         337 47.70        27.8 0.36             37            214 328 
 VIL  SZ EP        337 26.67                              56    0.44 9  260 280 
 VIL  SN ES        337 55.57                              56   -0.09 9  260 280 
 VIL  SZ I         338  0.98        48.4 0.38             36            260 280 
 CHI  HZ EP        337 29.40                              56    0.42 9  279 291 
 CHI  HN ES   4    337 58.18                              56   -2.37 0  279 291 
 CHI  HZ I         338 18.36        18.2 0.37             36            279 291 
 TAM  HZ EP   4    337 30.58                              55   -0.97 0  304 351 
 TAM  HN ES        338  5.46                              55    0.32 8  304 351 
 TAM  HZ I         338  8.39        16.8 0.30             36            304 351 
 RUS  HZ EP   4    337 29.75                              55   -2.55 0  305 322 
 RUS  HN ES   4    338  3.95                              55   -2.51 0  305 322 
 RUS  HZ I         338 21.77         4.6 0.48             36            305 322 
                                                                                
 2013  6 1 2341 31.8 L   3.797 -71.485  4.1  RSN 10 0.5 2.9LRSN 3.6WRSN        1
 SPEC AVERAGE  MO 14.4 ST  2.9 OM  3.3 f0 2.05 R0.8637 AL 1.97 WI 34.0 MW  3.6 3
 SPEC SD       MO  0.2 ST  2.5 OM  0.7 f00.235 R0.2153 AL      WI      MW  0.1 3
 GAP=229        0.91       3.3     7.6  6.0 -0.1355E+02  0.1802E+02 -0.6134E+01E
 Epicentro: PUERTO GAITAN - META                                               3
 SPEC YOP SH N MO 14.5 ST  3.3 OM  3.0 f0 1.99 R0.7809 AL 2.51 WI 30.9 MW  3.6 3
 SPEC YOP SH N T234225 K 0.000 GD  141 VS 4.20 DE 3.20 Q0300.0 QA 0.60 VS 4.20 3
 SPEC TAM HH Z MO 14.5 ST0.666 OM  1.9 f0 2.14 R1.3140 AL 1.36 WI 35.0 MW  3.6 3
 SPEC TAM HH Z T234210 K 0.000 GD  294 VP 7.60 DE 3.20 Q0300.0 QA 0.60 VS 4.20 3
 SPEC RUS HH N MO 14.1 ST0.996 OM  2.5 f0 1.85 R0.8400 AL 2.52 WI 34.4 MW  3.4 3
 SPEC RUS HH N T234246 K 0.000 GD  170 VS 4.20 DE 3.20 Q0300.0 QA 0.60 VS 4.20 3
 SPEC MACCHH N MO 14.4 ST  2.5 OM  2.8 f0 1.96 R0.7929 AL 1.69 WI 32.9 MW  3.6 3
 SPEC MACCHH N T234257 K 0.000 GD  178 VS 4.20 DE 3.20 Q0300.0 QA 0.60 VS 4.20 3
 SPEC CHI HH N MO 14.4 ST  1.9 OM  2.8 f0 1.85 R0.8400 AL 1.97 WI 35.7 MW  3.5 3
 SPEC CHI HH N T234240 K 0.000 GD  163 VS 4.20 DE 3.20 Q0300.0 QA 0.60 VS 4.20 3
 SPEC GUA SH N MO 14.6 ST  8.1 OM  3.1 f0 2.53 R0.6142 AL 1.74 WI 35.2 MW  3.7 3
 SPEC GUA SH N T234222 K 0.000 GD  137 VS 4.20 DE 3.20 Q0300.0 QA 0.60 VS 4.20 3
 ACTION:UPD 14-01-08 09:51 OP:ep   STATUS:               ID:20130601234131 L   I
 2013-06-01-2340-00M.COL___261                                                 6
 STAT SP IPHASW D HRMM SECON CODA AMPLIT PERI AZIMU VELO AIN AR TRES W  DIS CAZ7
 GUA  SZ EPg  1   2342  1.26                              90    0.38 7  188 223 
 GUA  SN ES       2342 23.37                              56    0.4010  188 223 
 GUA  SZ I        2342 27.45       245.6 0.26            113            188 223 
 YOP  SZ EP       2342  2.15                              56   -0.1810  201 329 
 YOP  SN ES       2342 26.96                              56    0.8410  201 329 
 YOP  SZ I        2342 29.28       136.9 0.24            107            201 329 
 VIL  SZ EPg      2342  9.75                              90   -0.33 9  248 278 
 VIL  SN ES   1   2342 36.91                              56    0.35 7  248 278 
 VIL  SZ I        2342 50.07       201.8 0.30            103            248 278 
 CHI  HZ EP       2342 10.45                              56   -0.35 9  266 290 
 CHI  HN ES       2342 41.26                              56    0.06 9  266 290 
 CHI  HZ I        2342 44.93        84.4 0.28            102            266 290 
 RUS  HZ EP   1   2342 13.25                              56   -0.87 6  292 323 
 RUS  HN ES   1   2342 47.04                              56   -0.08 6  292 323 
 RUS  HZ I        2343  1.06        26.5 0.60            100            292 323 
 TAM  HZ EPg  1   2342 16.99                              90    0.03 6  294 353 
 TAM  HN ESg  1   2342 51.70                              90   -0.47 6  294 353 
 TAM  HZ I        2343  7.88        49.5 0.36            100            294 353 
 MACC HZ EP   1   2342 17.97                              55    0.94 6  320 235 
 MACC HN ESg      2342 58.30                              90   -0.88 8  320 235 
 MACC HZ I        2343  4.16        57.4 0.44            100            320 235 
 PRA  HZ EP   1   2342 24.31                              55    0.09 5  378 269 
 PRA  HZ I        2343 31.25        28.9 0.38             96            378 269 
 NOR  HZ EP   1   2342 29.21                              55   -0.62 5  423 298 
 NOR  HZ I        2343 38.84        15.5 0.48                           423 298 
 PTB  HZ EP   2   2342 32.22                              55   -0.59 3  448 313 
 PTB  HZ I        2343 41.69         9.5 0.50                           448 313 
                                                                                
 2013  6 2 1406  3.8 L   3.836 -71.581  4.2  RSN  7 0.6 2.9LRSN                1
 GAP=224        1.10       5.0    10.8 10.0 -0.2760E+02  0.4052E+02 -0.3029E+02E
 Epicentro: PUERTO GAITAN - META                                               3
 ACTION:UPD 14-01-08 09:51 OP:ep   STATUS:               ID:20130602140606 L   I
 OLDACT:UP  13-07-02 09:39 OP:ep   STATUS:               ID:20130602140606 L   3
 2013-06-02-1358-51M.COL___215                                                 6
 STAT SP IPHASW D HRMM SECON CODA AMPLIT PERI AZIMU VELO AIN AR TRES W  DIS CAZ7
 GUA  SN ESg      14 6 54.15                              90   -0.4110  184 219 
 GUA  SE I        14 6 58.29       481.4 0.42             37            184 219 
 YOP  SZ EP       14 6 33.50                              56    0.3210  192 331 
 YOP  SN ES       14 6 56.19                              56    0.1010  192 331 
 VIL  SZ EP       14 6 39.82                              56    1.03 9  237 277 
 VIL  SN ES   1   14 7  6.72                              56    0.65 7  237 277 
 VIL  SE I        14 7 32.15       178.7 0.52             36            237 277 
 CHI  HZ EP       14 6 41.74                              56    0.39 9  254 290 
 CHI  HE ES       14 7 10.32                              56   -0.32 9  254 290 
 CHI  HN I        14 7 31.19        71.1 0.58             36            254 290 
 RUS  HZ EP   1   14 6 43.95                              56   -0.93 6  282 324 
 RUS  HZ EPg  1   14 6 47.18                              90   -0.45 6  282 324 
 RUS  HN ES   1   14 7 15.63                              56   -1.29 6  282 324 
 RUS  HN ESg  1   14 7 21.75                              90   -0.05 6  282 324 
 RUS  HE I        14 7 34.12        24.1 0.42             36            282 324 
 TAM  HZ EP   4   14 6 42.50                              56   -2.65 0  288 355 
 TAM  HN ES   3   14 7 15.83                              56   -1.56 2  288 355 
 TAM  HE I        14 7 32.83        93.1 0.34             36            288 355 
 PRA  HZ EP   1   14 6 54.67                              55   -0.25 5  367 268 
 PRA  HN I        14 7 59.08         7.2 0.74             36            367 268 
 PAM  SN ES   4   14 7 55.15                              55   10.78 0  407 342 
                                                                                
 2013  6 2 1651 10.2 L   3.826 -71.416  5.1  RSN  9 0.6 3.3LRSN 3.5WRSN        1
 SPEC AVERAGE  MO 14.3 ST  7.2 OM  3.0 f0 2.72 R0.5924 AL 1.95 WI 45.0 MW  3.5 3
 SPEC SD       MO  0.2 ST  7.3 OM  0.4 f00.523 R0.1102 AL      WI      MW  0.2 3
 GAP=192        1.09       4.0     6.3 13.1 -0.1219E+02  0.3717E+02 -0.2109E+02E
 Epicentro: PUERTO GAITAN - META                                               3
 SPEC PRA HH E MO 14.0 ST  1.7 OM  2.3 f0 2.44 R0.6369 AL 2.02 WI 44.7 MW  3.3 3
 SPEC PRA HH E T165256 K 0.000 GD  196 VS 4.20 DE 3.20 Q0300.0 QA 0.60 VS 4.20 3
 SPEC MACCHH N MO 14.6 ST 20.9 OM  2.9 f0 3.68 R0.4223 AL 2.15 WI 34.0 MW  3.6 3
 SPEC MACCHH N T165235 K 0.000 GD  181 VS 4.20 DE 3.20 Q0300.0 QA 0.60 VS 4.20 3
 SPEC RUS HH E MO 13.9 ST0.773 OM  2.3 f0 1.98 R0.7848 AL 1.88 WI 55.5 MW  3.2 3
 SPEC RUS HH E T165226 K 0.000 GD  171 VS 4.20 DE 3.20 Q0300.0 QA 0.60 VS 4.20 3
 SPEC TAM HH E MO 14.2 ST  3.4 OM  2.6 f0 2.58 R0.6023 AL 1.73 WI 57.6 MW  3.4 3
 SPEC TAM HH E T165222 K 0.000 GD  170 VS 4.20 DE 3.20 Q0300.0 QA 0.60 VS 4.20 3
 SPEC CHI HH E MO 14.3 ST  3.1 OM  2.7 f0 2.35 R0.6613 AL 1.86 WI 43.8 MW  3.5 3
 SPEC CHI HH E T165219 K 0.000 GD  164 VS 4.20 DE 3.20 Q0300.0 QA 0.60 VS 4.20 3
 SPEC YOP SH E MO 14.2 ST  4.7 OM  2.7 f0 2.84 R0.5472 AL 2.66 WI 38.4 MW  3.4 3
 SPEC YOP SH E T1652 3 K 0.000 GD  142 VS 4.20 DE 3.20 Q0300.0 QA 0.60 VS 4.20 3
 SPEC GUA SH E MO 14.6 ST 16.1 OM  3.1 f0 3.16 R0.4918 AL 1.35 WI 40.7 MW  3.7 3
 SPEC GUA SH E T1652 2 K 0.000 GD  139 VS 4.20 DE 3.20 Q0300.0 QA 0.60 VS 4.20 3
 ACTION:UPD 14-01-08 09:51 OP:ep   STATUS:               ID:20130602165110 L   I
 2013-06-02-1648-50M.COL___224                                                 6
 STAT SP IPHASW D HRMM SECON CODA AMPLIT PERI AZIMU VELO AIN AR TRES W  DIS CAZ7
 GUA  SZ EP       1651 39.40                              56   -0.3510  195 224 
 GUA  SN ES       1652  2.66                              56   -0.1810  195 224 
 YOP  SZ EP       1651 41.35                              56    0.5910  202 327 
 YOP  SN ES       1652  4.83                              56    0.2110  202 327 
 YOP  SE I        1652  9.80       182.4 0.66             37            202 327 
 VIL  SN ES       1652 16.05                              56   -0.29 9  255 277 
 VIL  SE I        1652 36.96       396.1 0.36             37            255 277 
 CHI  HZ EP       1651 49.78                              56   -0.04 9  272 289 
 CHI  HN ES       1652 20.89                              56    0.13 9  272 289 
 CHI  HE I        1652 22.79       153.1 0.32             37            272 289 
 TAM  HZ EP       1651 50.50                              55   -1.31 8  292 352 
 TAM  HN ES       1652 24.15                              55   -0.15 8  292 352 
 TAM  HE I        1652 32.29       129.7 0.30             37            292 352 
 RUS  HZ EP       1651 52.21                              55   -0.44 8  294 321 
 RUS  HN ES       1652 25.92                              55    0.12 8  294 321 
 MACC HZ EP       1651 57.39                              55    1.11 8  328 236 
 MACC HN I        1652 44.83       175.8 0.30             36            328 236 
 PRA  HZ EP       1652  4.19                              55    0.76 7  386 268 
 PRA  HN ES   1   1652 44.66                              55   -0.32 5  386 268 
 PRA  HE I        1653  8.26        44.9 0.42             36            386 268 
 ELOV BZ ES       1652 51.08                              55    0.58 6  411  31 
                                                                                
 2013  6 2 2313 38.9 L   3.870 -71.435  4.1  RSN  5 0.3 1.9LRSN                1
 GAP=268        0.48       2.6     6.7  4.5 -0.8858E+01  0.1307E+01  0.2180E+01E
 Epicentro: PUERTO GAITAN - META                                               3
 ACTION:UPD 14-01-08 09:52 OP:ep   STATUS:               ID:20130602231338 L   I
 2013-06-02-2310-00M.COL___257                                                 6
 STAT SP IPHASW D HRMM SECON CODA AMPLIT PERI AZIMU VELO AIN AR TRES W  DIS CAZ7
 YOP  SZ EP   1   2314  8.88                              56   -0.01 7  197 326 
 YOP  SE ESg      2314 33.24                              90   -0.0710  197 326 
 YOP  SZ I        2314 36.00        17.6 0.26             56            197 326 
 VIL  SN ES   1   2314 44.96                              56    0.35 7  252 276 
 CHI  HE ES   1   2314 48.75                              56   -0.07 7  268 288 
 RUS  HZ EP   4   2314 24.29                              56    3.49 0  289 321 
 RUS  HN ES   4   2314 54.43                              56    0.90 0  289 321 
 RUS  HZ I        2315  8.82         2.2 0.26             56            289 321 
 MACC HN ES   1   2315  1.76                              55    0.41 6  329 235 
 MACC HN ESg      2315  8.36                              90   -0.34 8  329 235 
 MACC HZ I        2315 10.98         4.7 0.41             55            329 235 
                                                                                
 2013  6 3 0134 54.8 L   3.990 -71.551  0.0  RSN  9 1.0 3.2LRSN 3.3WRSN        1
 SPEC AVERAGE  MO 14.0 ST  3.6 OM  2.9 f0 2.51 R0.6864 AL 2.19 WI 43.8 MW  3.3 3
 SPEC SD       MO  0.3 ST  5.5 OM  0.6 f00.906 R0.1924 AL      WI      MW  0.2 3
 GAP=197        1.48       7.7    19.1 19.2 -0.2234E+02  0.2525E+03  0.9466E+01E
 Epicentro: PUERTO GAITAN - META                                               3
 SPEC TAM HH N MO 14.2 ST  1.7 OM  2.6 f0 2.06 R0.7544 AL 1.90 WI 36.9 MW  3.4 3
 SPEC TAM HH N T 136 4 K 0.000 GD  164 VS 4.20 DE 3.20 Q0300.0 QA 0.60 VS 4.20 3
 SPEC RUS HH N MO 13.6 ST  1.6 OM  2.0 f0 3.20 R0.4856 AL 2.65 WI 44.9 MW  3.0 3
 SPEC RUS HH N T 136 3 K 0.000 GD  164 VS 4.20 DE 3.20 Q0300.0 QA 0.60 VS 4.20 3
 SPEC MACCHH Z MO 13.8 ST0.426 OM  2.1 f0 1.86 R0.8355 AL 1.42 WI 43.6 MW  3.1 3
 SPEC MACCHH Z T 13615 K 0.000 GD  180 VS 4.20 DE 3.20 Q0300.0 QA 0.60 VS 4.20 3
 SPEC MACCHH N MO 14.3 ST 15.9 OM  2.6 f0 4.23 R0.3674 AL 3.22 WI 37.5 MW  3.4 3
 SPEC MACCHH N T 13616 K 0.000 GD  180 VS 4.20 DE 3.20 Q0300.0 QA 0.60 VS 4.20 3
 SPEC FLO2HH N MO 14.3 ST  1.7 OM  2.5 f0 2.00 R0.7770 AL 2.28 WI 51.5 MW  3.4 3
 SPEC FLO2HH N T 137 7 K 0.000 GD  229 VS 4.20 DE 3.20 Q0300.0 QA 0.60 VS 4.20 3
 SPEC CHI HH N MO 13.9 ST0.477 OM  2.3 f0 1.73 R0.8983 AL 1.66 WI 48.3 MW  3.2 3
 SPEC CHI HH N T 136 0 K 0.000 GD  158 VS 4.20 DE 3.20 Q0300.0 QA 0.60 VS 4.20 3
 ACTION:UPD 14-01-08 09:52 OP:ep   STATUS:               ID:20130603013454 L   I
 2013-06-03-0130-00M.COL___257                                                 6
 STAT SP IPHASW D HRMM SECON CODA AMPLIT PERI AZIMU VELO AIN AR TRES W  DIS CAZ7
 YOP  SZ EP   1    135 22.63                              47   -0.6310  179 327 
 YOP  SN ES   1    135 46.45                              47    1.0310  179 327 
 YOP  SN I         135 52.83       170.2 0.38             37            179 327 
 GUA  SZ EP   4    135 25.36                              37   -0.37 0  200 217 
 GUA  SE ES   4    135 44.20                              37   -5.62 0  200 217 
 GUA  SE I         135 49.38       534.2 0.34             37            200 217 
 VIL  SZ EP   1    135 29.83                              37   -0.89 9  238 273 
 VIL  SN ES   2    135 59.12                              37    0.43 6  238 273 
 VIL  SN I         136  5.82       209.8 0.38             36            238 273 
 CHI  HZ EP   1    135 32.49                              37   -0.31 9  252 286 
 CHI  HN ES   2    136  2.55                              37    0.16 6  252 286 
 CHI  HN I         136 24.68        47.5 0.54             36            252 286 
 RUS  HZ EP   1    135 33.61                              37   -1.56 8  270 321 
 TAM  HZ EP   4    135 31.98                              37   -2.81 0  272 354 
 TAM  HN ES   4    136  8.99                              37    3.04 0  272 354 
 MACC HZ EP   1    135 40.53                              36   -1.06 7  327 231 
 MACC HN ES        136 19.03                              36    0.9910  327 231 
 MACC HN I         136 22.92        82.9 0.18             36            327 231 
 PRA  HZ EP   1    135 47.59                              36    0.43 7  372 265 
 ELOV BZ EP   1    135 53.27                              36    2.15 6  404  34 
 ELOV BZ ES   4    136 39.49                              36    4.48 0  404  34 
 FLO2 HZ EP   4    136 13.53                              36    7.08 0  528 240 
 FLO2 HN ES   4    137 13.89                              36   11.60 0  528 240 
 FLO2 HN I         137 27.79        27.1 0.56             36            528 240 
 PTLC HN ES   4    137 30.62                              36   15.90 0  585 218 
                                                                                
 2013  6 4 0640 46.7 L   3.816 -71.348  4.1  RSN  6 0.4 2.4LRSN                1
 GAP=235        0.61       2.9     8.3  9.8 -0.8824E+01  0.6536E+02 -0.5923E+01E
 Epicentro: PUERTO GAITAN - META                                               3
 ACTION:UPD 14-01-08 09:52 OP:ep   STATUS:               ID:20130604064046 L   I
 2013-06-04-0640-00M.COL___257                                                 6
 STAT SP IPHASW D HRMM SECON CODA AMPLIT PERI AZIMU VELO AIN AR TRES W  DIS CAZ7
 GUA  SZ EP   1    641 16.35                              56   -0.56 8  200 225 
 GUA  SN ES   1    641 41.03                              56    0.53 8  200 225 
 GUA  SZ I         641 44.47        59.5 0.14             56            200 225 
 YOP  SZ EP   4    641 19.58                              56    1.60 0  208 325 
 YOP  SN ES        641 42.58                              56    0.1710  208 325 
 CHI  HZ EP   1    641 26.76                              56   -0.58 7  280 289 
 CHI  HN ES   1    641 58.60                              56   -0.48 7  280 289 
 CHI  HZ I         642 18.51        20.8 0.44             55            280 289 
 TAM  HZ EP        641 28.67                              55   -0.00 9  294 350 
 TAM  HZ IPg       641 31.89                              90    0.08 9  294 350 
 TAM  HN ES   4    642  6.16                              55    4.71 0  294 350 
 RUS  HZ EP   1    641 30.19                              55    0.26 6  300 320 
 RUS  HN ES   1    642  3.64                              55   -0.05 6  300 320 
 RUS  HZ I         642 22.01         6.2 0.44             55            300 320 
 MACC HZ EP   4    641 36.85                              55    3.28 0  334 236 
 MACC HN ES   4    642 15.37                              55    5.20 0  334 236 
 BAR2 SZ EP   4    641 45.42                              55    7.32 0  368 327 
 BAR2 SZ ES   4    642 28.10                              55    9.88 0  368 327 
 PRA  HZ EP   1    641 41.42                              55    0.47 5  393 268 
 PRA  HN ES        642 23.39                              55    0.10 7  393 268 
 PRA  HZ I         642 47.75        10.0 0.34                           393 268 
 PAM  SN ES   4    642 39.00                              55    9.43 0  417 339 
 FLO2 HZ EP   4    642  6.12                              55    7.24 0  539 243 
 FLO2 HN ES   4    643 10.86                              55   15.64 0  539 243 
                                                                                
