 1997  716 0734 38.9 L   4.237 -71.920156.0  RSN  4 0.1 3.0LRSN                1
 GAP=304        0.37      18.7    21.5 32.7 -0.2896E+03  0.2873E+03  0.4570E+02E
 ACTION:UP  04-10-05 17:41 OP:KK   STATUS:               ID:19970716073455 L   I
 1997-07-16-0733-47S.COL___015                                                 6
 STAT SP IPHASW D HRMM SECON CODA AMPLIT PERI AZIMU VELO SNR AR TRES W  DIS CAZ7
 RUS  SZ IP     C  735 15.00                                     0.110  227 326 
 RUS  SZ I      C  735 23.56        87.1  0.3                           227 326 
 BAR  SZ EP        735 22.48                                    -0.1 9  300 332 
 BAR  SZ I      D  735 37.90        23.4  0.2                           300 332 
 TOL  SZ EP   1    735 31.83                                    -0.1 5  382 276 
 TOL  SZ I      D  735 32.99        42.5  0.5                           382 276 
 HEL  SZ EP        735 41.16                                     0.1 6  459 299 
 HEL  SZ ES   3    736 29.30                                    -0.1 1  459 299 
                                                                                
 1998  528 0445 19.9TD   4.107 -71.535 42.4  RSN  6 3.4                        1
 GAP=238        8.52      40.5    69.9999.9  0.1296E+02 -0.8277E+05 -0.1087E+06E
 ACTION:UPD 04-10-06 18:09 OP:KK   STATUS:               ID:19980528044519 L   I
 1998-05-28-0443-24S.COL___012                                                 6
 STAT SP IPHASW D HRMM SECON CODA AMPLIT PERI AZIMU VELO SNR AR TRES W  DIS CAZ7
 GUA  SZ EP   1    445 48.35                                    -0.6 7  211 215 
 GUA  SZ ES   1    446  7.35                                    -4.3 7  211 215 
 RUS  SZ EP   0    445 52.61                                    -3.410  264 320 
 ROS  .H EP   0    446  3.88                                     0.210  321 285 
 ROS  .H ES   0    446 36.92                                    -0.810  321 285 
 PRA  SZ EP   0    446 16.95                                     7.710  377 263 
 TOL  SZ EP   1    446 13.51                                    -2.5 7  426 277 
 OCA  SZ EP   0    446 26.14                                     1.610  498 337 
 OCA  SZ ES   0    447 13.88                                    -1.110  498 337 
                                                                                
 2012  916 0805 42.3 L   3.972 -71.827 16.4  RSN  6 0.3 2.3LRSN                1
 GAP=233        0.48       2.7     7.5 11.0 -0.3304E+01  0.3587E+02  0.8017E+01E
 Epicentro: PUERTO GAITAN - META                                               3
 ACTION:UPD 14-11-24 21:15 OP:nd   STATUS:               ID:20120916080542 L   I
 2012-09-16-0800-00M.COL___227                                                 6
 STAT SP IPHASW D HRMM SECON CODA AMPLIT PERI AZIMU VELO AIN AR TRES W  DIS CAZ7
 YOP  SZ EP   1    8 6  7.77                              56    0.33 7  166 337 
 YOP  SN ES   2    8 6 26.97                              56   -0.06 5  166 337 
 YOP  SZ I         8 6 35.02        25.8 0.21                           166 337 
 GUA  SZ EP   2    8 6  9.27                              56    0.10 4  181 209 
 GUA  SN ES   1    8 6 30.05                              56   -0.07 7  181 209 
 GUA  SZ I         8 6 32.03        96.3 0.24                           181 209 
 VIL  SZ EP   1    8 6 12.43                              56   -0.22 6  208 274 
 VIL  SZ I         8 6 53.15        50.7 0.41                           208 274 
 CHI  HZ EP   2    8 6 14.47                              56   -0.49 4  224 289 
 CHI  HZ I         8 6 54.62        29.4 0.44                           224 289 
 RUS  HZ EP   1    8 6 18.50                              56   -0.35 6  254 327 
 RUS  HZ I         8 7  1.20         9.5 0.43                           254 327 
 PRA  HZ EP   1    8 6 29.59                              55    0.51 5  341 265 
 PRA  HN ES   1    8 7  5.74                              55    0.18 5  341 265 
 PRA  HZ I         8 7 30.44         5.0 0.52                           341 265 
                                                                                
 2013  131 0256  9.6 L   4.445 -70.639 25.1  RSN  4 0.5 2.5LRSN                1
 GAP=294        0.84       8.1    12.7 11.7 -0.6430E+02  0.1066E+03 -0.4084E+02E
 Epicentro: SAN JOSE DE OCUNE - VICHADA                                        3
 ACTION:UPD 14-01-07 16:51 OP:ep   STATUS:               ID:20130131025609 L   I
 2013-01-31-0250-00M.COL___241                                                 6
 STAT SP IPHASW D HRMM SECON CODA AMPLIT PERI AZIMU VELO AIN AR TRES W  DIS CAZ7
 TAM  HZ EP        256 45.01                              61    0.0810  255 330 
 TAM  HZ EPg       256 47.51                              90   -0.2010  255 330 
 TAM  HN ES        257 12.07                              61   -0.4110  255 330 
 RUS  HZ EP   1    256 54.29                              60    1.36 7  315 301 
 RUS  HZ EPg       256 56.85                              90    0.04 9  315 301 
 RUS  HN ES        257 27.34                              60    0.63 9  315 301 
 RUS  HN I         257 29.55        10.4 0.71             55            315 301 
 VIL  SZ EP   1    256 55.43                              60   -0.31 6  341 264 
 VIL  SN ES   1    257 31.56                              60   -0.16 6  341 264 
 VIL  SZ I         257 46.49        23.6 0.29             55            341 264 
 CHI  HZ EP   1    256 56.10                              60   -0.32 6  344 274 
 CHI  HN ES        257 32.52                              60   -0.41 8  344 274 
                                                                                
 2013  4 2 1946 33.0 L   3.792 -71.327  5.3  RSN  7 0.4 3.0LRSN 3.2WRSN        1
 SPEC AVERAGE  MO 13.9 ST  4.4 OM  2.7 f0 3.20 R0.4957 AL 1.99 WI 38.6 MW  3.2 3
 SPEC SD       MO  0.3 ST  3.7 OM  0.6 f00.443 R0.0728 AL      WI      MW  0.2 3
 GAP=236        0.64       3.6     6.5 11.3 -0.1470E+02  0.4892E+02 -0.1837E+02E
 Epicentro: PUERTO GAITAN - META                                               3
 SPEC VIL SH Z MO 14.3 ST 11.3 OM  2.7 f0 3.62 R0.4293 AL 2.24 WI 23.8 MW  3.5 3
 SPEC VIL SH Z T194743 K 0.000 GD  162 VS 4.20 DE 3.20 Q0300.0 QA 0.60 VS 4.20 3
 SPEC RUS HH Z MO 13.4 ST0.536 OM  1.8 f0 2.56 R0.6070 AL 1.05 WI 22.4 MW  2.9 3
 SPEC RUS HH Z T194756 K 0.000 GD  174 VS 4.20 DE 3.20 Q0300.0 QA 0.60 VS 4.20 3
 SPEC SJA SH Z MO 14.2 ST  4.4 OM  2.6 f0 2.80 R0.5550 AL 1.90 WI 50.0 MW  3.4 3
 SPEC SJA SH Z T194746 K 0.000 GD  172 VS 4.20 DE 3.20 Q0300.0 QA 0.60 VS 4.20 3
 SPEC PRA HH Z MO 13.7 ST  2.8 OM  2.0 f0 3.66 R0.4246 AL 2.21 WI 38.5 MW  3.1 3
 SPEC PRA HH Z T194813 K 0.000 GD  198 VS 4.20 DE 3.20 Q0300.0 QA 0.60 VS 4.20 3
 SPEC CHI HH Z MO 13.8 ST  2.9 OM  2.2 f0 3.36 R0.4625 AL 2.56 WI 58.4 MW  3.2 3
 SPEC CHI HH Z T194734 K 0.000 GD  168 VS 4.20 DE 3.20 Q0300.0 QA 0.60 VS 4.20 3
 ACTION:UPD 14-01-08 09:29 OP:ep   STATUS:               ID:20130402194632 L   I
 2013-04-02-1940-00M.COL___245                                                 6
 STAT SP IPHASW D HRMM SECON CODA AMPLIT PERI AZIMU VELO AIN AR TRES W  DIS CAZ7
 GUA  SZ EP   1   1947  3.08                              56   -0.08 8  200 226 
 GUA  SE ES   1   1947 27.09                              56    0.44 8  200 226 
 GUA  SZ I        1947 31.12       233.3 0.20             37            200 226 
 VIL  SZ EP       1947 11.21                              56   -0.2810  265 278 
 VIL  SN ES       1947 41.91                              56    0.4310  265 278 
 VIL  SZ I        1947 48.44       148.8 0.36             36            265 278 
 CHI  HZ EP   1   1947 14.17                              56    0.17 7  283 289 
 CHI  HN ES   1   1947 45.71                              56   -0.25 7  283 289 
 CHI  HZ I        1947 48.03        53.2 0.30             36            283 289 
 TAM  HZ EP   1   1947 15.37                              55    0.05 7  297 350 
 TAM  HZ I        1947 53.51        45.8 0.50             36            297 350 
 SJA  SZ EP   4   1947 17.41                              55    1.96 0  297 259 
 SJA  SZ ES       1947 47.94                              55   -0.59 9  297 259 
 SJA  SZ I        1947 58.20       110.0 0.30             36            297 259 
 TAM  HN ES       1947 48.03                              55   -0.28 9  297 350 
 RUS  HZ EP       1947 16.78                              55    0.13 9  303 320 
 RUS  HN ES   1   1947 51.38                              55    0.71 7  303 320 
 RUS  HZ I        1948  5.12        18.4 0.48             36            303 320 
 PRA  HZ EP   2   1947 27.99                              55    0.49 4  395 269 
 PRA  HN ES       1948  9.71                              55   -0.27 8  395 269 
 PRA  HZ I        1948 29.43        18.2 0.28             36            395 269 
                                                                                
 2013  4 3 1649  0.0 L   3.804 -71.539  2.0  RSN  7 0.5 2.6LRSN                1
 GAP=226        0.82       4.7     8.8  7.6 -0.2093E+02  0.3444E+02 -0.9152E+01E
 Epicentro: PUERTO GAITAN - META                                               3
 ACTION:UPD 14-01-08 09:29 OP:ep   STATUS:               ID:20130403164900 L   I
 2013-04-03-1647-37M.COL___217                                                 6
 STAT SP IPHASW D HRMM SECON CODA AMPLIT PERI AZIMU VELO AIN AR TRES W  DIS CAZ7
 GUA  SN ES   1   1649 50.69                              37   -0.35 7  184 221 
 GUA  SZ I        1649 53.55        99.1 0.12             61            184 221 
 VIL  SZ EP   1   1649 36.76                              37    0.76 6  242 278 
 VIL  SE ES   1   1650  3.56                              37   -0.49 6  242 278 
 VIL  SZ I        1650 12.15        85.1 0.32             60            242 278 
 CHI  HZ EP   1   1649 37.99                              37   -0.64 6  260 291 
 CHI  HN ES   1   1650  8.97                              37    0.24 6  260 291 
 CHI  HZ I        1650 18.04        19.2 0.40             60            260 291 
 SJA  SZ EP   1   1649 40.75                              37    0.69 6  274 258 
 SJA  SZ ES   2   1650 12.08                              37    0.81 4  274 258 
 SJA  SZ I        1650 25.52        44.7 0.30             60            274 258 
 RUS  HZ EP   1   1649 41.35                              37   -0.82 5  288 324 
 RUS  HN ES   1   1650 14.79                              37   -0.23 5  288 324 
 RUS  HZ I        1650 28.95        12.4 0.44             60            288 324 
 TAM  HZ EP   1   1649 42.08                              36   -0.15 5  292 355 
 TAM  HN ES   1   1650 15.63                              36    0.49 5  292 355 
 TAM  HZ I        1650 17.95        22.9 0.18             60            292 355 
 PRA  HZ EP   1   1649 52.37                              36    0.32 5  372 269 
 PRA  HZ I        1650 58.35         9.3 0.32             60            372 269 
                                                                                
 2013  4 6 0900 53.3 L   3.826 -71.418 26.0  RSN  6 0.5 2.2LRSN                1
 GAP=232        0.78       5.7    11.4 20.0 -0.4080E+02  0.9540E+02 -0.2850E+02E
 Epicentro: PUERTO GAITAN - META                                               3
 ACTION:UPD 14-01-08 09:30 OP:ep   STATUS:               ID:20130406090053 L   I
 2013-04-06-0900-00M.COL___245                                                 6
 STAT SP IPHASW D HRMM SECON CODA AMPLIT PERI AZIMU VELO AIN AR TRES W  DIS CAZ7
 GUA  SN ES   1    9 1 42.68                              61   -0.14 9  195 224 
 GUA  SZ I         9 1 46.57        49.0 0.14            121            195 224 
 CHI  HZ EP   1    9 1 30.25                              60   -0.92 8  272 289 
 CHI  HN ES   1    9 2  1.12                              60    0.44 8  272 289 
 CHI  HZ I         9 2  7.56         9.8 0.36            111            272 289 
 SJA  SZ EP        9 1 33.29                              60    0.4910  288 258 
 SJA  SZ ES   3    9 2  3.36                              60   -0.23 2  288 258 
 TAM  HZ EP   1    9 1 33.86                              60    0.71 7  291 352 
 TAM  HE ES   1    9 2  3.84                              60   -0.37 7  291 352 
 TAM  HZ I         9 2  9.22         7.2 0.58            110            291 352 
 RUS  HZ EP   2    9 1 33.71                              60   -0.27 5  294 321 
 PRA  HZ EP   1    9 1 44.20                              60   -0.54 6  385 268 
                                                                                
 2013  4 9 2033 46.7 L   3.831 -71.337 14.0  RSN  6 0.5 2.5LRSN                1
 GAP=235        0.64       3.4    10.8 14.8 -0.1240E+02  0.8021E+02 -0.7425E+01E
 Epicentro: PUERTO GAITAN - META                                               3
 ACTION:UPD 14-01-08 09:31 OP:ep   STATUS:               ID:20130409203346 L   I
 2013-04-09-2030-00M.COL___245                                                 6
 STAT SP IPHASW D HRMM SECON CODA AMPLIT PERI AZIMU VELO AIN AR TRES W  DIS CAZ7
 GUA  SN ES       2034 39.35                              56   -0.1010  202 225 
 VIL  SZ EP   2   2034 24.41                              56    0.24 4  264 277 
 VIL  SN ES   2   2034 53.76                              56    0.33 4  264 277 
 VIL  SZ I        2035  0.66        71.9 0.30             55            264 277 
 CHI  HZ EP   1   2034 26.08                              55   -0.51 7  280 288 
 CHI  HE ES   1   2034 58.15                              55    0.43 7  280 288 
 CHI  HZ I        2035 18.21        19.2 0.46             55            280 288 
 TAM  HN ES   2   2035  0.47                              55    0.86 4  292 350 
 TAM  HZ I        2035  6.41        18.2 0.48             55            292 350 
 RUS  HZ EP   2   2034 29.59                              55    0.56 4  299 320 
 RUS  HN ES       2035  1.51                              55   -0.55 8  299 320 
 RUS  HZ I        2035 20.75         6.0 0.48             55            299 320 
 PRA  HZ EP   1   2034 40.66                              55    0.41 5  394 268 
 PRA  HN ES   2   2035 22.49                              55    0.45 3  394 268 
 PRA  HZ I        2035 46.91         9.3 0.34             55            394 268 
                                                                                
 2013  410 0337 43.6 L   3.791 -71.199 25.2  RSN  8 0.5 3.3LRSN 3.4WRSN        1
 SPEC AVERAGE  MO 14.2 ST  5.3 OM  3.1 f0 2.73 R0.5821 AL 2.26 WI 44.0 MW  3.4 3
 SPEC SD       MO  0.3 ST  3.6 OM  0.7 f00.435 R0.0789 AL      WI      MW  0.2 3
 GAP=242        0.75       3.9     7.9  6.9 -0.1335E+02  0.1161E+02  0.1057E+02E
 Epicentro: OROCUE - CASANARE                                                  3
 SPEC TAM HH N MO 14.2 ST  9.5 OM  2.6 f0 3.62 R0.4293 AL 2.30 WI 45.3 MW  3.4 3
 SPEC TAM HH N T 33858 K 0.000 GD  173 VS 4.20 DE 3.20 Q0300.0 QA 0.60 VS 4.20 3
 SPEC PRA HH N MO 13.6 ST0.732 OM  1.9 f0 2.50 R0.6216 AL 2.34 WI 50.9 MW  3.0 3
 SPEC PRA HH N T 33918 K 0.000 GD  202 VS 4.20 DE 3.20 Q0300.0 QA 0.60 VS 4.20 3
 SPEC RUS HH N MO 13.9 ST  1.3 OM  2.3 f0 2.35 R0.6613 AL 2.73 WI 46.1 MW  3.2 3
 SPEC RUS HH N T 33859 K 0.000 GD  176 VS 4.20 DE 3.20 Q0300.0 QA 0.60 VS 4.20 3
 SPEC SJA SH Z MO 14.4 ST  4.5 OM  2.8 f0 2.41 R0.6448 AL 2.13 WI 53.8 MW  3.6 3
 SPEC SJA SH Z T 339 0 K 0.000 GD  176 VS 4.20 DE 3.20 Q0300.0 QA 0.60 VS 4.20 3
 SPEC GUA SH N MO 14.6 ST 10.2 OM  3.0 f0 2.89 R0.5377 AL 1.63 WI 29.0 MW  3.6 3
 SPEC GUA SH N T 33836 K 0.000 GD  144 VS 4.20 DE 3.20 Q0300.0 QA 0.60 VS 4.20 3
 SPEC CHI HH N MO 14.4 ST  5.6 OM  2.8 f0 2.60 R0.5977 AL 2.40 WI 38.8 MW  3.6 3
 SPEC CHI HH N T 33854 K 0.000 GD  172 VS 4.20 DE 3.20 Q0300.0 QA 0.60 VS 4.20 3
 ACTION:UPD 14-01-08 09:31 OP:ep   STATUS:               ID:20130410033744 L   I
 2013-04-10-0328-35M.COL___215                                                 6
 STAT SP IPHASW D HRMM SECON CODA AMPLIT PERI AZIMU VELO AIN AR TRES W  DIS CAZ7
 GUA  SZ EP   1    338 12.60                              56   -0.74 7  210 229 
 GUA  SN ES        338 36.90                              56    0.3710  210 229 
 GUA  SZ I         338 41.02       259.6 0.25             90            210 229 
 VIL  SZ EP        338 22.08                              56   -0.02 9  279 277 
 VIL  SZ EPg       338 25.41                              91    0.07 9  279 277 
 VIL  SN ES   1    338 52.68                              56    0.56 7  279 277 
 VIL  SZ I         338 58.36       199.3 0.36             81            279 277 
 CHI  HZ EP        338 24.05                              55   -0.46 9  296 288 
 CHI  HN ES   4    338 54.51                              55   -1.91 0  296 288 
 CHI  HN I         339 10.31       194.3 0.38             81            296 288 
 TAM  HZ EP   1    338 24.86                              55    0.35 6  300 347 
 TAM  HN ESg       339  3.01                              91    0.10 8  300 347 
 SJA  SZ EP        338 26.59                              55    0.59 8  311 259 
 SJA  SZ I         339 18.83       157.3 0.38             81            311 259 
 RUS  HZ EP   1    338 26.57                              55   -0.07 6  313 318 
 RUS  HN ES   4    339  1.61                              55    1.41 0  313 318 
 RUS  HZ I         339 15.02        21.9 0.47             81            313 318 
 PRA  HZ EP   1    338 38.59                              55    0.51 5  410 269 
 PRA  HZ EPg       338 43.64                              91   -0.23 7  410 269 
 PRA  HN ES        339 19.67                              55   -0.91 7  410 269 
 FLO2 HZ EP   1    338 54.81                              55   -0.84 3  552 244 
 FLO2 HZ EPg       339  3.98                              90   -0.22 4  552 244 
                                                                                
 2013  410 1501 24.2 L   3.717 -71.503  0.0  RSN  5 0.3 2.8LRSN                1
 GAP=230        0.53       3.2     6.2  5.4 -0.5967E+01  0.1534E+02 -0.3816E+01E
 Epicentro: PUERTO GAITAN - META                                               3
 ACTION:UPD 14-01-08 09:31 OP:ep   STATUS:               ID:20130410150124 L   I
 2013-04-10-1500-00M.COL___245                                                 6
 STAT SP IPHASW D HRMM SECON CODA AMPLIT PERI AZIMU VELO AIN AR TRES W  DIS CAZ7
 GUA  SZ EP   2   15 1 52.24                              37   -0.36 6  180 224 
 GUA  SN ES   1   15 2 14.88                              37    0.09 9  180 224 
 GUA  SZ I        15 2 21.67       139.3 0.18             91            180 224 
 VIL  SZ EP   1   15 2  1.22                              37    0.08 8  247 280 
 VIL  SN ES   1   15 2 30.14                              37    0.15 8  247 280 
 VIL  SZ I        15 2 37.83       114.0 0.30             81            247 280 
 CHI  HZ EP       15 2  3.63                              37   -0.3610  267 292 
 CHI  HN ES       15 2 34.95                              37   -0.1010  267 292 
 CHI  HZ I        15 2 53.77        29.7 0.38             81            267 292 
 TAM  HN ES   1   15 2 42.24                              36    0.20 7  302 354 
 TAM  HZ I        15 2 55.13        23.0 0.24             81            302 354 
 PRA  HZ EP   1   15 2 17.78                              36    0.79 6  376 270 
 PRA  HZ I        15 3 24.02        17.0 0.36             81            376 270 
                                                                                
