 2013  410 1728 31.1 L   3.826 -71.329 10.7  RSN  6 0.5 2.9LRSN                1
 GAP=236        0.74       5.3     9.1 14.7 -0.2637E+02  0.7112E+02 -0.1986E+02E
 Epicentro: PUERTO GAITAN - META                                               3
 ACTION:UPD 14-01-08 09:31 OP:ep   STATUS:               ID:20130410172831 L   I
 2013-04-10-1727-48M.COL___218                                                 6
 STAT SP IPHASW D HRMM SECON CODA AMPLIT PERI AZIMU VELO AIN AR TRES W  DIS CAZ7
 GUA  SN ES   1   1729 24.18                              56   -0.24 9  202 226 
 GUA  SZ I        1729 26.76       116.4 0.22             37            202 226 
 VIL  SZ EP   1   1729  9.11                              56    0.14 8  264 277 
 VIL  SN ES   1   1729 38.97                              56    0.43 8  264 277 
 VIL  SZ I        1729 45.15       131.0 0.28             36            264 277 
 CHI  HZ EP       1729 10.88                              56   -0.5210  281 289 
 CHI  HN ES   1   1729 42.42                              56   -0.43 7  281 289 
 CHI  HZ I        1730  2.55        36.7 0.46             36            281 289 
 TAM  HZ EP   1   1729 11.96                              55   -0.46 7  293 350 
 TAM  HN ES   1   1729 45.06                              55    0.38 7  293 350 
 TAM  HZ I        1729 54.14        36.1 0.24             36            293 350 
 SJA  SZ EP   1   1729 14.06                              55    0.99 7  298 258 
 SJA  SZ ES   4   1729 51.18                              55    5.34 0  298 258 
 SJA  SZ I        1729 55.66        55.6 0.16             36            298 258 
 PRA  HZ EP   1   1729 25.52                              55    0.48 6  395 268 
 PRA  HN ES   1   1730  7.01                              55   -0.13 6  395 268 
 PRA  HZ I        1730 31.19        19.3 0.40             36            395 268 
                                                                                
 2013  411 1706 44.3 L   3.795 -71.446 32.1  RSN  4 0.2 2.2LRSN                1
 GAP=262        0.37       2.4    10.1 17.1 -0.5178E+01  0.1340E+03 -0.4909E+01E
 Epicentro: PUERTO GAITAN - META                                               3
 ACTION:UPD 14-01-08 09:31 OP:ep   STATUS:               ID:20130411170644 L   I
 2013-04-11-1700-00M.COL___245                                                 6
 STAT SP IPHASW D HRMM SECON CODA AMPLIT PERI AZIMU VELO AIN AR TRES W  DIS CAZ7
 GUA  SN ES   1   17 7 31.89                              61   -0.05 7  191 224 
 CHI  HN ES   1   17 7 50.29                              60   -0.11 6  270 290 
 CHI  HZ I        17 7 52.88        16.3 0.44             37            270 290 
 SJA  SZ EP   1   17 7 23.11                              60    0.26 6  284 258 
 SJA  SZ ES   2   17 7 52.89                              60    0.01 4  284 258 
 SJA  SZ I        17 8  3.85        14.0 0.12             36            284 258 
 RUS  HZ EP   1   17 7 24.34                              60   -0.23 5  295 322 
 RUS  HN ES   1   17 7 56.11                              60    0.15 5  295 322 
 RUS  HZ I        17 8 10.20         5.5 0.42             36            295 322 
                                                                                
 2013  412 0140 59.3 L   3.809 -71.660  0.2  RSN  6 0.8 2.8LRSN                1
 GAP=183        1.26       5.4     7.9 11.3 -0.1927E+02  0.2357E+02 -0.1530E+02E
 Epicentro: PUERTO GAITAN - META                                               3
 ACTION:UPD 14-01-08 09:31 OP:ep   STATUS:               ID:20130412014059 L   I
 2013-04-12-0138-42M.COL___212                                                 6
 STAT SP IPHASW D HRMM SECON CODA AMPLIT PERI AZIMU VELO AIN AR TRES W  DIS CAZ7
 GUA  SN ES        141 48.73                              47   -0.1910  176 218 
 GUA  SN I         141 53.07       384.8 0.50             92            176 218 
 VIL  SZ EP        141 34.82                              37    0.93 9  228 279 
 CHI  HZ EP   1    141 34.92                              37   -1.68 7  247 292 
 CHI  HN ES        142  6.11                              37    0.42 9  247 292 
 CHI  HN I         142 10.23        51.2 0.38             91            247 292 
 SJA  SZ EP   4    141 40.59                              37    2.59 0  261 257 
 SJA  SZ ES   4    142 10.56                              37    2.37 0  261 257 
 RUS  HZ EP   2    141 39.55                              37   -1.14 4  279 326 
 RUS  HN ES        142 12.61                              37   -0.37 8  279 326 
 RUS  HN I         142 31.51        31.8 0.54             91            279 326 
 PRA  HZ EP   1    141 50.34                              36    0.38 5  358 268 
 PRA  HE I         142 56.48        14.6 0.46             91            358 268 
 ELOV BZ EP        141 58.75                              36    0.33 6  428  34 
 ELOV BZ ES        142 44.68                              36    0.14 6  428  34 
                                                                                
 2013  412 0146  3.9 L   3.792 -71.441 32.1  RSN  5 0.3 1.7LRSN                1
 GAP=262        0.45       6.6    16.3 31.8 -0.7975E+02  0.4727E+03 -0.1528E+03E
 Epicentro: PUERTO GAITAN - META                                               3
 ACTION:UPD 14-01-08 09:31 OP:ep   STATUS:               ID:20130412014601 L   I
 2013-04-12-0138-42M.COL___212                                                 6
 STAT SP IPHASW D HRMM SECON CODA AMPLIT PERI AZIMU VELO AIN AR TRES W  DIS CAZ7
 GUA  SN ES   3    146 50.87                              61   -0.67 4  191 224 
 CHI  HZ EP   4    146 37.60                              60   -3.51 0  271 290 
 CHI  HN ES   1    147  9.75                              60   -0.3810  271 290 
 CHI  HZ I         147 12.22         5.1 0.37             96            271 290 
 SJA  SZ EP   1    146 42.74                              60    0.26 9  285 258 
 SJA  SZ I         147 22.94         5.6 0.12             93            285 258 
 RUS  HZ EP   1    146 44.12                              60   -0.11 9  295 322 
 RUS  HZ I         146 54.42         1.3 0.46             96            295 322 
 RUS  HN ES   1    147 15.82                              60    0.14 9  295 322 
 PRA  HN ES        147 34.16                              60    0.1910  383 269 
                                                                                
 2013  412 0201 10.9 L   3.792 -71.344 39.9  RSN  7 0.6 2.6LRSN                1
 GAP=236        1.11       5.8    11.9 37.1 -0.3184E+02  0.1607E+03 -0.5795E+01E
 Epicentro: PUERTO GAITAN - META                                               3
 ACTION:UP  14-01-08 09:31 OP:ep   STATUS:               ID:20130412020110 L   I
 2013-04-12-0158-42M.COL___212                                                 6
 STAT SP IPHASW D HRMM SECON CODA AMPLIT PERI AZIMU VELO AIN AR TRES W  DIS CAZ7
 GUA  SZ EP   2    2 1 38.93                              81    0.29 5  198 226 
 GUA  SN ES        2 2  0.15                              81   -0.1010  198 226 
 GUA  SE I         2 2  2.96       163.1 0.12            107            198 226 
 VIL  SZ EP   1    2 1 47.37                              81    0.56 7  263 278 
 VIL  SN ES        2 2 15.33                              81    0.54 9  263 278 
 CHI  HZ EPg       2 1 48.37                              92   -1.16 9  281 289 
 CHI  HN ES   1    2 2 18.62                              81   -0.62 6  281 289 
 CHI  HZ I         2 2 21.43        10.3 0.33            101            281 289 
 SJA  SZ EP   1    2 1 50.70                              81   -0.03 6  295 259 
 TAM  HE ES        2 2 21.63                              81   -0.26 8  297 350 
 TAM  HE I         2 2 26.98        18.5 0.36             99            297 350 
 RUS  HZ EPg       2 1 53.39                              92    1.13 8  302 320 
 RUS  HN ES   4    2 2 22.15                              81   -1.90 0  302 320 
 PRA  HZ EP   1    2 2  2.35                              81   -0.43 5  394 269 
 PRA  HN ES   3    2 2 43.75                              81    0.53 2  394 269 
                                                                                
 2013  412 0532 13.5 L   3.815 -71.381 24.9  RSN  5 0.6 2.4LRSN                1
 GAP=234        0.99       9.7    10.3 10.2 -0.6862E+02  0.3823E+02 -0.4267E+02E
 Epicentro: PUERTO GAITAN - META                                               3
 ACTION:UPD 14-01-08 09:31 OP:ep   STATUS:               ID:20130412053213 L   I
 2013-04-12-0528-35M.COL___212                                                 6
 STAT SP IPHASW D HRMM SECON CODA AMPLIT PERI AZIMU VELO AIN AR TRES W  DIS CAZ7
 GUA  SN ES   3    533  2.57                              56   -0.97 3  197 225 
 VIL  SE ES        533 17.62                              56    0.1110  259 277 
 CHI  HZ EP   1    532 50.56                              55   -1.35 7  276 289 
 CHI  HZ EPg       532 57.17                              94    0.7410  276 289 
 CHI  HN ES   1    533 21.33                              55   -0.57 7  276 289 
 CHI  HN I         533 40.71        20.5 0.56             60            276 289 
 SJA  SZ EP        532 53.84                              55    0.36 9  292 258 
 TAM  HZ EP        532 53.46                              55   -0.12 9  293 351 
 TAM  HN ES        533 24.96                              55    0.08 9  293 351 
 TAM  HN I         533 30.85        17.4 0.36             60            293 351 
                                                                                
 2013  412 1422 38.9 L   3.798 -71.405  1.5  RSN  6 0.5 2.5LRSN                1
 GAP=233        0.73       4.0     8.0  8.0 -0.1408E+02  0.4284E+02 -0.1167E+02E
 Epicentro: PUERTO GAITAN - META                                               3
 ACTION:UPD 14-01-08 09:31 OP:ep   STATUS:               ID:20130412142238 L   I
 2013-04-12-1420-00M.COL___245                                                 6
 STAT SP IPHASW D HRMM SECON CODA AMPLIT PERI AZIMU VELO AIN AR TRES W  DIS CAZ7
 GUA  SZ EP   1   1423  9.12                              37    0.25 9  194 224 
 GUA  SN ES   1   1423 31.96                              37   -0.27 9  194 224 
 GUA  SZ I        1423 38.60        84.7 0.18             37            194 224 
 VIL  SN ES   1   1423 46.59                              37    0.20 8  256 278 
 CHI  HZ EP   1   1423 19.40                              37    0.02 7  274 290 
 CHI  HN ES       1423 50.28                              37   -0.6510  274 290 
 CHI  HZ I        1423 53.91        31.1 0.32             36            274 290 
 TAM  HZ EP   1   1423 21.26                              36   -0.25 7  295 352 
 TAM  HN ES   1   1423 55.22                              36    0.50 7  295 352 
 TAM  HZ I        1424  1.35        25.9 0.30             36            295 352 
 RUS  HZ EP   1   1423 22.45                              36    0.11 7  297 321 
 RUS  HE ES   1   1423 55.89                              36   -0.31 7  297 321 
 RUS  HZ I        1424 14.64         9.6 0.46             36            297 321 
 PRA  HZ EP   1   1423 33.01                              36    0.15 6  387 269 
 PRA  HN ES   1   1424 16.21                              36    1.28 6  387 269 
 PRA  HZ I        1424 34.53        11.5 0.50             36            387 269 
                                                                                
 2013  413 1353 36.4 L   3.819 -71.424 14.0  RSN  6 0.6 2.5LRSN                1
 GAP=232        0.94       5.7    10.1 17.6 -0.2872E+02  0.1016E+03 -0.2729E+02E
 Epicentro: PUERTO GAITAN - META                                               3
 ACTION:UPD 14-01-08 09:32 OP:ep   STATUS:               ID:20130413135336 L   I
 2013-04-13-1350-00M.COL___244                                                 6
 STAT SP IPHASW D HRMM SECON CODA AMPLIT PERI AZIMU VELO AIN AR TRES W  DIS CAZ7
 GUA  SN ES   1   1354 27.47                              56    0.02 9  194 224 
 GUA  SZ I        1354 28.16        82.7 0.20            103            194 224 
 VIL  SZ EP   1   1354 13.01                              56    0.31 8  254 277 
 VIL  SN ES   1   1354 40.90                              56   -0.13 8  254 277 
 VIL  SZ I        1354 52.61        49.2 0.36             99            254 277 
 CHI  HZ EP       1354 14.13                              56   -1.0810  271 289 
 CHI  HE ES       1354 45.65                              56    0.1610  271 289 
 CHI  HZ I        1354 48.20        21.4 0.28             98            271 289 
 TAM  HZ EP   1   1354 18.35                              55    1.02 7  292 352 
 TAM  HN ES   1   1354 48.56                              55   -0.71 7  292 352 
 RUS  HZ EP   1   1354 18.26                              55    0.16 7  294 321 
 RUS  HN ES   1   1354 51.12                              55    0.48 7  294 321 
 RUS  HZ I        1355  9.40         8.1 0.42             98            294 321 
 PRA  HZ EP   1   1354 29.34                              55    0.58 6  385 268 
 PRA  HN ES   1   1355  9.92                              55    0.31 6  385 268 
 PRA  HZ I        1355 29.58         7.0 0.46                           385 268 
                                                                                
 2013  414 1239 15.9 L   3.795 -71.343 32.1  RSN  7 0.5 2.5LRSN                1
 GAP=236        0.72       4.8     9.9 26.8 -0.2754E+02  0.1344E+03 -0.3198E+02E
 Epicentro: PUERTO GAITAN - META                                               3
 ACTION:UPD 14-01-08 09:32 OP:ep   STATUS:               ID:20130414123915 L   I
 2013-04-14-1238-48M.COL___199                                                 6
 STAT SP IPHASW D HRMM SECON CODA AMPLIT PERI AZIMU VELO AIN AR TRES W  DIS CAZ7
 GUA  SN ES   1   1240  5.02                              61   -0.22 6  199 226 
 GUA  SZ I        1240  9.04        74.2 0.10            108            199 226 
 VIL  SN ES   1   1240 19.93                              60    0.08 6  263 278 
 CHI  HN ES   1   1240 23.55                              60   -0.74 6  281 289 
 SJA  SZ ES   1   1240 27.21                              60    0.35 5  295 259 
 SJA  SZ I        1240 46.56        38.7 0.34             99            295 259 
 TAM  HN ES   1   1240 26.33                              60   -0.55 5  296 350 
 TAM  HZ I        1240 32.16        13.1 0.22            100            296 350 
 RUS  HZ EP   1   1239 57.82                              60    0.84 5  302 320 
 RUS  HN ES   1   1240 29.44                              60    0.38 5  302 320 
 PRA  HZ EP   2   1240  7.15                              60   -0.64 3  394 269 
 PRA  HE ES   1   1240 48.59                              60    0.30 4  394 269 
 PRA  HZ I        1241  7.65         4.4 0.50                           394 269 
                                                                                
 2013  414 1440 49.1 L   3.867 -71.497 12.0  RSN  6 0.5 2.3LRSN                1
 GAP=227        0.70       4.2     8.5 15.6 -0.1940E+02  0.7607E+02 -0.1923E+02E
 Epicentro: PUERTO GAITAN - META                                               3
 ACTION:UPD 14-01-08 09:32 OP:ep   STATUS:               ID:20130414144049 L   I
 2013-04-14-1438-50M.COL___212                                                 6
 STAT SP IPHASW D HRMM SECON CODA AMPLIT PERI AZIMU VELO AIN AR TRES W  DIS CAZ7
 GUA  SZ EP   1   1441 17.72                              56   -0.01 7  193 221 
 GUA  SE ES   1   1441 40.12                              56    0.02 7  193 221 
 GUA  SZ I        1441 46.55        63.0 0.18             96            193 221 
 CHI  HN ES   1   1441 56.62                              56    0.24 6  262 289 
 SJA  SZ EP   2   1441 29.34                              56    0.52 4  280 257 
 SJA  SZ ES   1   1441 59.36                              56   -0.48 6  280 257 
 RUS  HZ EP   1   1441 28.93                              55   -0.88 6  285 322 
 RUS  HZ I        1442 22.82         6.7 0.40             92            285 322 
 TAM  HZ EP   1   1441 29.34                              55   -0.06 6  286 353 
 TAM  HN ES   1   1442  1.16                              55    0.29 6  286 353 
 TAM  HZ I        1442 10.51        14.2 0.44             92            286 353 
 PRA  HZ EP   1   1441 41.59                              55    0.96 5  377 268 
                                                                                
 2013  414 1506 56.0 L   3.779 -71.470 12.0  RSN  5 0.5 2.1LRSN                1
 GAP=230        0.77       4.9    10.2 18.5 -0.2907E+02  0.1079E+03 -0.2539E+02E
 Epicentro: PUERTO GAITAN - META                                               3
 ACTION:UPD 14-01-08 09:32 OP:ep   STATUS:               ID:20130414150656 L   I
 2013-04-14-1458-50M.COL___209                                                 6
 STAT SP IPHASW D HRMM SECON CODA AMPLIT PERI AZIMU VELO AIN AR TRES W  DIS CAZ7
 GUA  SE ES   1   15 7 45.71                              56   -0.13 7  187 223 
 GUA  SZ I        15 7 48.76        40.4 0.20            116            187 223 
 CHI  HE ES   1   15 8  4.10                              56   -0.54 6  268 291 
 CHI  HZ I        15 8 19.09         8.8 0.24            106            268 291 
 SJA  SZ EP   1   15 7 36.25                              55    0.43 6  281 259 
 SJA  SZ ES   1   15 8  7.17                              55    0.25 6  281 259 
 RUS  HZ EP   1   15 7 38.48                              55    0.59 5  294 323 
 RUS  HN ES   1   15 8 10.60                              55   -0.01 5  294 323 
 RUS  HZ I        15 8 23.68         3.3 0.40            105            294 323 
 TAM  HZ EP   1   15 7 36.55                              55   -1.00 5  296 353 
 TAM  HN ES   1   15 8 10.47                              55    0.48 5  296 353 
 TAM  HZ I        15 8 11.32         8.4 0.56            106            296 353 
                                                                                
