 2013  426 0507 13.1 L   3.756 -71.212 20.2  RSN  7 0.4 3.0LRSN                1
 GAP=267        0.62       4.1     9.8  8.1 -0.1947E+02  0.4047E+02 -0.1064E+02E
 Epicentro: SAN JOSE DE OCUNE - VICHADA                                        3
 ACTION:UPD 14-01-08 09:35 OP:ep   STATUS:               ID:20130426050712 L   I
 2013-04-26-0458-46M.COL___208                                                 6
 STAT SP IPHASW D HRMM SECON CODA AMPLIT PERI AZIMU VELO AIN AR TRES W  DIS CAZ7
 GUA  SZ EP   4    5 7 42.00                              56   -0.85 0  207 230 
 GUA  SN ES   1    5 8  6.38                              56    0.37 8  207 230 
 GUA  SN I         5 8 12.01       376.1 0.22             90            207 230 
 YOP  SZ EP   1    5 7 45.02                              56    0.14 7  222 323 
 YOP  SN ES        5 8  9.87                              56    0.2410  222 323 
 YOP  SN I         5 8 19.25        95.1 0.38             90            222 323 
 VIL  SZ EP   1    5 7 51.19                              55   -0.77 7  278 278 
 VIL  SN ES        5 8 22.00                              55   -0.23 9  278 278 
 VIL  SN I         5 8 35.94       393.3 0.48             90            278 278 
 TAM  HZ EP   4    5 7 54.27                              55   -0.65 0  303 348 
 TAM  HN ES   4    5 8 31.72                              55    4.22 0  303 348 
 TAM  HN I         5 8 35.86        82.4 0.34             81            303 348 
 RUS  HZ EP   1    5 7 56.68                              55   -0.17 6  314 319 
 RUS  HN I         5 8 45.19        16.0 0.32             81            314 319 
 ELOV BZ EP   4    5 8 16.61                              55    8.96 0  407  28 
 ELOV BZ EPg  4    5 8 18.98                              92    3.56 0  407  28 
 ELOV BZ ES   4    5 9  4.99                              55   14.83 0  407  28 
 PRA  HZ EP   1    5 8  7.49                              55   -0.38 5  408 269 
 PRA  HZ EPg       5 8 16.04                              92    0.37 7  408 269 
 PRA  HN I         5 9  7.47        10.7 0.64             81            408 269 
 PAM  SZ EP   4    5 8 19.00                              55    7.99 0  429 337 
 PAM  SN I         5 9 13.95        17.5 0.32             81            429 337 
                                                                                
 2013  428 1937 27.8 L   3.696 -71.272 10.8  RSN  8 1.0 3.0LRSN                1
 GAP=241        1.40      10.7    17.1 18.4 -0.9902E+02  0.6434E+02 -0.3601E+01E
 Epicentro: PUERTO GAITAN - META                                               3
 ACTION:UPD 14-01-08 09:35 OP:ep   STATUS:               ID:20130428193725 L   I
 2013-04-28-1936-48M.COL___202                                                 6
 STAT SP IPHASW D HRMM SECON CODA AMPLIT PERI AZIMU VELO AIN AR TRES W  DIS CAZ7
 GUA  SZ EP   1   1937 56.40                              56   -0.77 9  197 230 
 GUA  SN ES   1   1938 21.13                              56    1.08 9  197 230 
 GUA  SZ I        1938 25.80       324.9 0.18            113            197 230 
 VIL  SZ EP       1938  6.04                              56   -0.7210  273 280 
 VIL  SN ES   1   1938 36.33                              56   -0.80 7  273 280 
 VIL  SZ I        1938 41.75       255.1 0.32            101            273 280 
 TAM  HZ EP       1938 11.00                              55   -0.05 9  308 349 
 TAM  HN ES   2   1938 46.88                              55    2.11 5  308 349 
 TAM  HZ I        1938 59.04        49.3 0.30             97            308 349 
 RUS  HZ EP   4   1938  9.98                              55   -2.46 0  315 320 
 RUS  HZ EPg  4   1938 13.22                              91   -3.48 0  315 320 
 RUS  HZ I        1938 58.03        20.9 0.54             97            315 320 
 BAR2 SZ EP   4   1938 25.29                              55    4.67 0  384 327 
 BAR2 SZ I        1939 19.28        20.9 0.46             96            384 327 
 PRA  HZ EP   1   1938 22.06                              55   -0.49 6  401 270 
 PRA  HZ EPg      1938 30.51                              91    1.20 8  401 270 
 GIR2 SZ EP   4   1938 31.83                              55    5.59 0  430 330 
 GIR2 SZ ES   4   1939 20.78                              55    8.98 0  430 330 
 GIR2 SZ I        1939 31.82        15.5 0.32             95            430 330 
 PAM  SZ EP   4   1938 33.02                              55    6.06 0  433 339 
 PAM  SN ES   4   1939 20.96                              55    7.88 0  433 339 
 PAM  SZ I        1939 29.25        24.0 0.32             95            433 339 
                                                                                
 2013  428 2058 11.1 L   3.773 -71.531  5.3  RSN  5 0.3 2.3LRSN                1
 GAP=228        0.60       2.6     7.2 11.5 -0.7781E+01  0.5921E+02 -0.5649E+01E
 Epicentro: PUERTO GAITAN - META                                               3
 ACTION:UPD 14-01-08 09:35 OP:ep   STATUS:               ID:20130428205811 L   I
 2013-04-28-2048-36M.COL___211                                                 6
 STAT SP IPHASW D HRMM SECON CODA AMPLIT PERI AZIMU VELO AIN AR TRES W  DIS CAZ7
 GUA  SN ES       2059  0.91                              56    0.0310  182 222 
 YOP  SZ EP       2058 41.35                              56   -0.1410  201 331 
 YOP  SN ES       2059  5.63                              56    0.4510  201 331 
 YOP  SN I        2059 15.12        67.4 0.28            119            201 331 
 VIL  SZ EP       2058 47.01                              56    0.21 9  243 279 
 VIL  SN ES       2059 14.44                              56   -0.19 9  243 279 
 RUS  HZ EP       2058 53.37                              56    0.16 8  291 324 
 RUS  HN ES       2059 25.62                              56   -0.41 8  291 324 
 RUS  HZ I        2059 39.47         5.7 0.56            111            291 324 
 TAM  HZ EP       2058 53.03                              55   -0.26 8  296 354 
                                                                                
 2013  430 2338  5.6 L   3.733 -71.187 16.0  RSN  6 0.4 3.1LRSN                1
 GAP=243        0.68       4.1     9.7 14.4 -0.2589E+02  0.1042E+03 -0.3197E+02E
 Epicentro: SAN JOSE DE OCUNE - VICHADA                                        3
 ACTION:UPD 14-01-08 09:36 OP:ep   STATUS:               ID:20130430233805 L   I
 2013-04-30-2337-49M.COL___229                                                 6
 STAT SP IPHASW D HRMM SECON CODA AMPLIT PERI AZIMU VELO AIN AR TRES W  DIS CAZ7
 GUA  SZ EP       2338 35.50                              56   -0.2310  207 231 
 GUA  SN ES   1   2338 59.46                              56    0.23 7  207 231 
 GUA  SZ I        2339  3.31       298.3 0.38             37            207 231 
 YOP  SZ EP       2338 38.12                              56   -0.0410  226 323 
 YOP  SE ES   1   2339  3.35                              56   -0.21 7  226 323 
 YOP  SZ I        2339  5.55       141.4 0.30             37            226 323 
 VIL  SZ EP       2338 44.81                              55   -0.37 9  282 279 
 VIL  SN ES   1   2339 15.78                              55   -0.26 7  282 279 
 VIL  SZ I        2339 18.89       202.1 0.30             36            282 279 
 TAM  HZ EP       2338 48.10                              55   -0.02 8  306 347 
 TAM  HE ES   1   2339 21.24                              55   -0.04 6  306 347 
 TAM  HZ I        2339 31.89        57.6 0.46             36            306 347 
 RUS  HZ EP       2338 51.01                              55    0.87 8  318 319 
 RUS  HN ES   2   2339 24.28                              55   -0.60 4  318 319 
 RUS  HZ I        2339 41.92        24.4 0.48             36            318 319 
 PRA  HZ EP       2339  1.02                              55   -0.02 7  411 270 
 PRA  HN ES   1   2339 45.17                              55    0.88 5  411 270 
 PRA  HZ I        2340  8.10        25.7 0.62             36            411 270 
 PAM  SZ EP   4   2339 12.18                              55    7.92 0  433 337 
 PAM  SN ES   4   2339 46.72                              55   -3.29 0  433 337 
                                                                                
 2013  430 2345 42.1 L   3.796 -71.377 11.5  RSN  9 0.3 3.2LRSN 3.5WRSN        1
 SPEC AVERAGE  MO 14.3 ST  3.1 OM  3.5 f0 2.31 R0.7063 AL 2.05 WI 35.6 MW  3.5 3
 SPEC SD       MO  0.3 ST  1.0 OM  0.7 f00.500 R0.1519 AL      WI      MW  0.2 3
 GAP=234        0.47       2.6     6.9  9.8 -0.9897E+01  0.3749E+02 -0.1263E+02E
 SPEC GUA SH Z MO 14.1 ST  1.8 OM  2.6 f0 2.24 R0.6937 AL 0.95 WI 31.7 MW  3.4 3
 SPEC GUA SH Z T234633 K 0.000 GD  140 VS 4.20 DE 3.20 Q0300.0 QA 0.60 VS 4.20 3
 SPEC VIL SH Z MO 14.7 ST  3.1 OM  3.1 f0 1.73 R0.8983 AL 1.98 WI 52.2 MW  3.7 3
 SPEC VIL SH Z T234648 K 0.000 GD  161 VS 4.20 DE 3.20 Q0300.0 QA 0.60 VS 4.20 3
 SPEC YOP SH Z MO 14.2 ST  4.3 OM  2.6 f0 2.95 R0.5268 AL 3.22 WI 23.0 MW  3.4 3
 SPEC YOP SH Z T234636 K 0.000 GD  144 VS 4.20 DE 3.20 Q0300.0 QA 0.60 VS 4.20 3
 Epicentro: PUERTO GAITAN - META                                               3
 Evento sentido                                                                2
 Reportado como sentido en:                                                    3
 PUERTO GAITAN (META)                                                          3
 ACTION:UPD 14-01-08 09:36 OP:ep   STATUS:               ID:20130430234542 L   I
 2013-04-30-2340-00M.COL___253                                                 6
 STAT SP IPHASW D HRMM SECON CODA AMPLIT PERI AZIMU VELO AIN AR TRES W  DIS CAZ7
 GUA  SZ EP   1   2346 10.80                              56   -0.41 8  196 225 
 GUA  SN ES   1   2346 34.12                              56    0.19 8  196 225 
 GUA  SN I        2346 38.03      1043.9 0.30             37            196 225 
 GUA  SZ I        2346 40.93       237.5 0.20                           196 225 
 YOP  SZ EP   1   2346 12.95                              56    0.17 7  208 326 
 YOP  SN ES       2346 36.67                              56   -0.0410  208 326 
 YOP  SZ I        2346 41.80       164.1 0.45                           208 326 
 YOP  SN I        2346 54.67       308.3 0.44             36            208 326 
 VIL  SZ EP   1   2346 19.43                              56    0.13 7  260 278 
 VIL  SN ES   1   2346 48.14                              56   -0.20 7  260 278 
 VIL  SZ I        2346 57.24       194.9 0.44                           260 278 
 VIL  SN I        2347  8.79       663.7 0.66             36            260 278 
 TAM  HZ EP   4   2346 22.41                              55   -1.25 0  296 351 
 TAM  HN ES   1   2346 56.14                              55    0.05 6  296 351 
 TAM  HZ I        2347  0.66        58.4 0.25                           296 351 
 RUS  HZ EP   2   2346 24.21                              55   -0.46 4  299 321 
 PRA  HZ EP   1   2346 35.93                              55    0.62 5  390 269 
 PRA  HZ I        2347 36.65        25.2 0.63                           390 269 
 ELOV BZ EP   4   2346 42.88                              55    4.91 0  412  31 
 ELOV BZ ES   4   2347 32.03                              55   10.46 0  412  31 
 GIR2 SZ EP   4   2346 45.70                              55    7.16 0  415 331 
 GIR2 SZ ES   4   2347 31.32                              55    8.74 0  415 331 
 GIR2 SZ I        2347 43.65        44.7 0.44             36            415 331 
 PAM  SZ EP   4   2346 45.95                              55    6.58 0  418 340 
 PAM  SN ES   4   2347 35.82                              55   11.77 0  418 340 
 PAM  SZ I        2347 47.35        24.8 0.42             36            418 340 
 NOR  HZ EP   4   2346 53.41                              55   12.65 0  434 297 
 NOR  HN ES   4   2347 23.89                              55   -2.65 0  434 297 
 NOR  HZ I        2347 47.01        15.0 0.56             36            434 297 
                                                                                
 2013  5 1 0153 47.4 L   3.769 -71.215 15.2  RSN  6 0.3 2.7LRSN                1
 GAP=241        0.63       3.2     9.4 11.4 -0.2024E+02  0.6925E+02 -0.2002E+02E
 Epicentro: OROCUE - CASANARE                                                  3
 ACTION:UPD 14-01-08 09:42 OP:ep   STATUS:               ID:20130501015347 L   I
 2013-05-01-0150-00M.COL___253                                                 6
 STAT SP IPHASW D HRMM SECON CODA AMPLIT PERI AZIMU VELO AIN AR TRES W  DIS CAZ7
 GUA  SZ EP   1    154 17.07                              56   -0.56 7  207 229 
 GUA  SN ES        154 41.31                              56    0.1110  207 229 
 YOP  SZ EP        154 19.69                              56    0.2810  220 323 
 YOP  SN ES        154 43.96                              56   -0.4010  220 323 
 YOP  SZ I         154 47.69        87.1 0.32             91            220 323 
 VIL  SZ EP        154 26.93                              55    0.33 9  278 278 
 TAM  HZ EP        154 29.18                              55   -0.26 8  302 348 
 TAM  HZ I         154 48.10        23.4 0.44             90            302 348 
 TAM  HN ES        155  2.52                              55    0.31 8  302 348 
 RUS  HN ES        155  5.65                              55   -0.05 8  313 319 
 PRA  HZ EP        154 42.68                              55    0.14 7  408 269 
 PRA  HZ I         155 43.17        14.3 0.34             90            408 269 
                                                                                
 2013  5 1 1102 14.6 L   3.759 -71.504  9.4  RSN  4 0.7 2.5LRSN                1
 GAP=229        0.73       5.1    13.2 17.5 -0.4555E+02  0.8675E+02 -0.2078E+02E
 Epicentro: PUERTO GAITAN - META                                               3
 ACTION:UPD 14-01-08 09:42 OP:ep   STATUS:               ID:20130501110215 L   I
 2013-05-01-1100-00M.COL___253                                                 6
 STAT SP IPHASW D HRMM SECON CODA AMPLIT PERI AZIMU VELO AIN AR TRES W  DIS CAZ7
 GUA  SZ EP   3   11 2 42.48                              56    0.14 2  183 223 
 GUA  SN ES   3   11 3  3.31                              56   -0.65 2  183 223 
 GUA  SE ES   1   11 3  3.84                              56   -0.12 7  183 223 
 GUA  SZ I        11 3  8.19        59.4 0.34            127            183 223 
 VIL  SZ EP   1   11 2 51.11                              56    0.75 6  246 279 
 VIL  SN ES   3   11 3 18.33                              56    0.10 2  246 279 
 RUS  HZ EP   3   11 2 54.55                              55   -2.18 2  294 323 
 RUS  HN ES   1   11 3 28.98                              55   -0.59 5  294 323 
 TAM  HZ EP   1   11 2 56.25                              55   -0.41 5  298 354 
 TAM  HN ES   1   11 3 30.04                              55    0.59 5  298 354 
 TAM  HZ I        11 3 30.82        17.9 0.46            112            298 354 
 PRA  HZ EP   4   11 3  6.22                              55   -0.07 0  376 269 
 PRA  HN ES   4   11 3 58.92                              55   12.33 0  376 269 
                                                                                
 2013  5 1 1434 26.8 L   3.746 -71.242 13.3  RSN  6 0.5 2.7LRSN                1
 GAP=241        0.73       5.3    11.4 19.4 -0.3761E+02  0.1468E+03 -0.2978E+02E
 Epicentro: PUERTO GAITAN - META                                               3
 ACTION:UPD 14-01-08 09:42 OP:ep   STATUS:               ID:20130501143426 L   I
 2013-05-01-1430-00M.COL___253                                                 6
 STAT SP IPHASW D HRMM SECON CODA AMPLIT PERI AZIMU VELO AIN AR TRES W  DIS CAZ7
 GUA  SN ES   1   1435 19.88                              56   -0.15 6  203 229 
 GUA  SZ I        1435 24.93       117.7 0.28            107            203 229 
 YOP  SZ EP   1   1434 59.31                              56    0.30 6  221 324 
 YOP  SE ES   1   1435 24.13                              56    0.02 6  221 324 
 YOP  SZ I        1435 26.68        47.4 0.42            104            221 324 
 VIL  SE ES   1   1435 35.79                              56   -0.50 6  275 279 
 TAM  HZ EP   1   1435  9.79                              55    0.55 5  304 348 
 TAM  HN ES   1   1435 42.13                              55   -0.20 5  304 348 
 TAM  HZ I        1435 50.56        20.9 0.20             99            304 348 
 RUS  HZ EP   1   1435 10.26                              55   -0.71 5  313 319 
 PRA  HN ES   1   1436  5.64                              55    1.06 4  405 270 
 PRA  HZ I        1436 28.56        10.7 0.70                           405 270 
                                                                                
 2013  5 4 1617 46.7 L   3.831 -71.488  0.0  RSN  5 0.7 2.9LRSN                1
 GAP=275        0.91      22.4    25.0 22.4 -0.5132E+03  0.5085E+03 -0.4539E+03E
 Epicentro: PUERTO GAITAN - META                                               3
 ACTION:UPD 14-01-08 09:43 OP:ep   STATUS:               ID:20130504161747 L   I
 2013-05-04-1615-50M.COL___226                                                 6
 STAT SP IPHASW D HRMM SECON CODA AMPLIT PERI AZIMU VELO AIN AR TRES W  DIS CAZ7
 YOP  SZ EP       1618 17.38                              37   -0.0510  198 328 
 YOP  SN ES   2   1618 41.64                              37    0.21 5  198 328 
 YOP  SN I        1618 45.41       125.3 0.20             37            198 328 
 VIL  SZ EP   1   1618 24.12                              37    0.51 7  247 277 
 VIL  SN ES   1   1618 52.39                              37   -0.03 7  247 277 
 VIL  SZ I        1619  6.36       102.3 0.38             36            247 277 
 RUS  HZ EP   1   1618 28.13                              37   -1.12 6  289 322 
 RUS  HN ES   1   1619  2.06                              37   -0.41 6  289 322 
 RUS  HZ I        1619 16.73        17.5 0.42             36            289 322 
 TAM  HZ EP   1   1618 28.47                              37   -0.42 6  290 353 
 TAM  HE ES   1   1619  2.81                              37    0.99 6  290 353 
 TAM  HN I        1619  5.78        95.0 0.40             36            290 353 
 PRA  HZ EP   2   1618 41.05                              36    1.33 4  378 268 
 PAM  SZ EP   4   1618 51.42                              36    7.10 0  411 341 
                                                                                
