 2013  5 6 0728 20.9 L   3.814 -71.352  0.0  RSN  7 0.6 3.0LRSN                1
 GAP=235        0.85       4.9    12.6  8.2 -0.4525E+02  0.5948E+02 -0.1497E+02E
 Epicentro: PUERTO GAITAN - META                                               3
 ACTION:UPD 14-01-08 09:43 OP:ep   STATUS:               ID:20130506072820 L   I
 2013-05-06-0726-38M.COL___212                                                 6
 STAT SP IPHASW D HRMM SECON CODA AMPLIT PERI AZIMU VELO AIN AR TRES W  DIS CAZ7
 GUA  SZ EP   2    728 51.01                              37   -0.76 5  199 225 
 GUA  SN ES        729 16.16                              37    0.3110  199 225 
 TAM  HZ EP   1    729  3.52                              37   -0.10 6  294 350 
 TAM  HN ES        729 36.93                              37   -0.01 8  294 350 
 TAM  HZ I         729 46.33        82.5 0.30             97            294 350 
 RUS  HZ EP        729  4.96                              36    0.11 8  300 320 
 PRA  HZ EP   1    729 17.23                              36    1.41 5  393 269 
 PRA  HN ES        729 57.67                              36   -0.99 7  393 269 
 PRA  HZ I         730 22.78        72.1 0.42             93            393 269 
 PAM  SZ EP        729 18.82                              36   -0.59 6  417 339 
 PAM  SN ES        730  5.50                              36    0.45 6  417 339 
 BRR  HZ EP        729 22.19                              36   -0.44 6  448 324 
 BRR  HN ES        730 11.25                              36    0.47 6  448 324 
 BRR  HZ I         730 42.11        13.6 0.44             92            448 324 
 PTB  HZ EP   3    729 23.35                              36   -0.43 1  457 311 
 PTB  HZ I         730 33.83        14.4 0.56             92            457 311 
                                                                                
 2013  5 6 1405 56.9 L   3.807 -71.269  4.1  RSN  6 0.5 3.1LRSN                1
 GAP=239        0.85       5.2    12.7  7.3 -0.4807E+02  0.1285E+02  0.8856E+01E
 Epicentro: PUERTO GAITAN - META                                               3
 ACTION:UPD 14-01-08 09:43 OP:ep   STATUS:               ID:20130506140556 L   I
 2013-05-06-1400-00M.COL___253                                                 6
 STAT SP IPHASW D HRMM SECON CODA AMPLIT PERI AZIMU VELO AIN AR TRES W  DIS CAZ7
 GUA  SN ES       14 6 51.81                              56   -0.2310  206 227 
 YOP  SZ EP   1   14 6 29.82                              56    0.82 7  213 323 
 YOP  SN ES   2   14 6 55.07                              56    1.06 5  213 323 
 YOP  SZ I        14 7  4.21       126.0 0.46             81            213 323 
 VIL  SZ EP   2   14 6 36.44                              56    0.18 4  271 277 
 TAM  HZ EP       14 6 39.36                              55    0.09 8  296 349 
 TAM  HZ IPg      14 6 42.43                              90   -0.04 8  296 349 
 TAM  HN ES       14 7 12.70                              55    0.41 8  296 349 
 TAM  HN ESg      14 7 17.23                              90   -0.76 8  296 349 
 RUS  HZ EP   2   14 6 40.89                              55   -0.12 4  306 319 
 RUS  HZ IPg      14 6 43.77                              90   -0.63 8  306 319 
 PRA  HZ EP   1   14 6 52.69                              55    0.39 5  402 269 
 PRA  HN ES   2   14 7 35.97                              55    0.48 3  402 269 
 PRA  HZ I        14 7 58.47        38.4 0.40             81            402 269 
                                                                                
 2013  510 0145  2.6 L   3.801 -71.285 12.7  RSN 14 0.5 3.5LRSN 3.9WRSN        1
 SPEC AVERAGE  MO 14.9 ST  7.8 OM  3.5 f0 1.85 R0.9450 AL 2.12 WI 69.3 MW  3.9 3
 SPEC SD       MO  0.2 ST  6.7 OM  0.3 f00.626 R0.3261 AL      WI      MW  0.1 3
 GAP=238        0.91       3.4     6.8  8.3 -0.1011E+02  0.3200E+02 -0.7777E+01E
 Epicentro: PUERTO GAITAN - META                                               3
 SPEC RUS HH E MO 15.2 ST  2.0 OM  3.6 f0 1.00 R1.5540 AL 2.45 WI 38.5 MW  4.1 3
 SPEC RUS HH E T 14619 K 0.000 GD  174 VS 4.20 DE 3.20 Q0300.0 QA 0.60 VS 4.20 3
 SPEC PRA HH N MO 14.9 ST  2.5 OM  3.2 f0 1.40 R1.1100 AL 2.11 WI 53.4 MW  3.9 3
 SPEC PRA HH N T 14636 K 0.000 GD  200 VS 4.20 DE 3.20 Q0300.0 QA 0.60 VS 4.20 3
 SPEC TAM HH N MO 15.0 ST 11.7 OM  3.4 f0 2.10 R0.7400 AL 1.77 WI 44.6 MW  4.0 3
 SPEC TAM HH N T 14612 K 0.000 GD  172 VS 4.20 DE 3.20 Q0300.0 QA 0.60 VS 4.20 3
 SPEC PAM SH N MO 14.8 ST 10.4 OM  3.1 f0 2.40 R0.6475 AL 3.08 WI 44.6 MW  3.8 3
 SPEC PAM SH N T 14643 K 0.000 GD  205 VS 4.20 DE 3.20 Q0300.0 QA 0.60 VS 4.20 3
 SPEC CHI HH E MO 15.1 ST 13.2 OM  3.5 f0 2.04 R0.7618 AL 2.57 WI 37.8 MW  4.0 3
 SPEC CHI HH E T 14614 K 0.000 GD  169 VS 4.20 DE 3.20 Q0300.0 QA 0.60 VS 4.20 3
 SPEC VIL SH Z MO 15.0 ST 24.7 OM  3.4 f0 2.74 R0.5672 AL 2.60 WI 79.8 MW  4.0 3
 SPEC VIL SH Z T 14558 K 0.000 GD  164 VS 4.20 DE 3.20 Q0300.0 QA 0.60 VS 4.20 3
 SPEC YOP SH Z MO 14.9 ST 12.6 OM  3.3 f0 2.46 R0.6317 AL 1.96 WI 48.7 MW  3.9 3
 SPEC YOP SH Z T 14556 K 0.000 GD  145 VS 4.20 DE 3.20 Q0300.0 QA 0.60 VS 4.20 3
 SPEC ROSCBH Z MO 14.9 ST  2.8 OM  3.2 f0 1.47 R1.0571 AL 2.70 WI109.8 MW  3.9 3
 SPEC ROSCBH Z T 14624 K 0.000 GD  188 VS 4.20 DE 3.20 Q0300.0 QA 0.60 VS 4.20 3
 SPEC RUS HH Z MO 14.7 ST0.640 OM  3.1 f0 1.00 R1.5540 AL 1.40 WI 95.7 MW  3.8 3
 SPEC RUS HH Z T 14613 K 0.000 GD  174 VS 4.20 DE 3.20 Q0300.0 QA 0.60 VS 4.20 3
 SPEC TAM HH Z MO 14.8 ST  5.8 OM  3.2 f0 1.94 R0.8010 AL 1.19 WI102.2 MW  3.8 3
 SPEC TAM HH Z T 14611 K 0.000 GD  172 VS 4.20 DE 3.20 Q0300.0 QA 0.60 VS 4.20 3
 SPEC PAM SH Z MO 14.6 ST 14.0 OM  2.9 f0 3.09 R0.5029 AL 2.04 WI 64.0 MW  3.7 3
 SPEC PAM SH Z T 14647 K 0.000 GD  205 VS 4.20 DE 3.20 Q0300.0 QA 0.60 VS 4.20 3
 SPEC PRA HH Z MO 14.9 ST  2.0 OM  3.2 f0 1.30 R1.1954 AL 2.23 WI 90.5 MW  3.9 3
 SPEC PRA HH Z T 14644 K 0.000 GD  200 VS 4.20 DE 3.20 Q0300.0 QA 0.60 VS 4.20 3
 SPEC FLO2HH Z MO 15.1 ST  4.3 OM  3.3 f0 1.47 R1.0571 AL 1.96 WI106.8 MW  4.0 3
 SPEC FLO2HH Z T 14710 K 0.000 GD  233 VS 4.20 DE 3.20 Q0300.0 QA 0.60 VS 4.20 3
 SPEC CHI HH Z MO 14.7 ST  2.0 OM  3.1 f0 1.48 R1.0500 AL 1.55 WI 54.0 MW  3.8 3
 SPEC CHI HH Z T 14610 K 0.000 GD  169 VS 4.20 DE 3.20 Q0300.0 QA 0.60 VS 4.20 3
 ACTION:UPD 14-01-08 09:44 OP:ep   STATUS:               ID:20130510014502 L   I
 OLDACT:UP  13-06-18 10:14 OP:ep   STATUS:               ID:20130510014502 L   3
 OLDACT:UP  13-06-18 09:41 OP:ep   STATUS:               ID:20130510014502 L   3
 2013-05-10-0140-00M.COL___256                                                 6
 STAT SP IPHASW D HRMM SECON CODA AMPLIT PERI AZIMU VELO AIN AR TRES W  DIS CAZ7
 GUA  SZ EP        145 31.85                              56   -0.7310  204 227 
 GUA  SN ES        145 56.70                              56    0.7210  204 227 
 YOP  SZ EP        145 34.38                              56    0.5210  213 324 
 YOP  SN ES   2    145 58.74                              56    0.49 5  213 324 
 YOP  SZ I         146  3.79       525.0 0.40             37            213 324 
 VIL  SZ EP        145 41.02                              56    0.05 9  270 277 
 VIL  SE ES   1    146 10.79                              56   -0.12 7  270 277 
 VIL  SZ I         146 26.36      1026.1 0.48             36            270 277 
 CHI  HZ EP        145 43.15                              55   -0.27 9  287 289 
 CHI  HE ES        146 14.59                              55   -0.69 9  287 289 
 CHI  HZ I         146 21.60       268.1 0.42             36            287 289 
 TAM  HZ EP        145 43.94                              55   -0.27 8  297 349 
 TAM  HN ES        146 17.37                              55    0.69 8  297 349 
 TAM  HZ I         146 28.82       299.1 0.30             36            297 349 
 RUS  HZ IP     C  145 45.23                              55   -0.60 8  305 319 
 RUS  HE IPg       145 50.46                              92    0.48 8  305 319 
 RUS  HE ES        146 20.03                              55    0.47 8  305 319 
 RUS  HZ I         146 34.76       111.8 0.44             36            305 319 
 ROSC BZ EP   1    145 52.19                              55    0.24 6  356 289 
 ROSC BN ES        146 30.58                              55    0.12 7  356 289 
 ROSC BZ I         147  2.59       103.8 0.50             36            356 289 
 PRA  HZ IP     C  145 57.74                              55    0.76 7  400 269 
 PRA  HN ES        146 39.07                              55   -0.34 7  400 269 
 PRA  HZ I         147 11.30        99.9 0.46             36            400 269 
 PAM  SZ EP        145 59.33                              55   -0.83 6  422 338 
 PAM  SN ES        146 44.26                              55   -0.81 6  422 338 
 PAM  SZ I         147  4.92       113.6 0.36             36            422 338 
 NOR  HZ EP        146  2.07                              55   -0.19 6  443 296 
 NOR  HN ES        146 48.48                              55   -0.34 6  443 296 
 NOR  HZ I         147 11.37        47.4 0.60             36            443 296 
 BRR  HZ EP   1    146  3.34                              55   -0.22 4  454 324 
 BRR  HN ES   2    146 51.20                              55    0.08 3  454 324 
 BRR  HZ I         147  9.39        39.6 0.60             36            454 324 
 MARA HZ EP   4    146 20.18                              55    6.92 0  530 259 
 MARA HN ES   4    147 24.81                              55   16.42 0  530 259 
 MARA HZ I         147 34.91        62.0 0.64             36            530 259 
 HEL  HZ EP        146 14.72                              55    0.11 4  540 299 
 HEL  HZ I         147 33.13        14.0 0.44             36            540 299 
 FLO2 HZ EP        146 15.28                              55    0.55 4  544 243 
 FLO2 HN ES   4    147 24.40                              55   13.40 0  544 243 
 FLO2 HZ I         147 43.76       110.2 0.54             36            544 243 
 YOT  HZ EP   4    146 15.90                              55   -1.20 0  562 272 
 YOT  HN ES   4    147 11.23                              55   -4.00 0  562 272 
 SML  HZ EP   4    146 23.41                              55   -2.27 0  633 331 
 SML  HN ES   4    147 28.86                              55   -1.63 0  633 331 
                                                                                
 2013  511 0047 38.3 L   3.788 -71.456  0.0  RSN  6 0.4 2.8LRSN                1
 GAP=231        0.73       3.9     9.3 10.4 -0.1302E+02  0.7110E+02 -0.1421E+02E
 Epicentro: PUERTO GAITAN - META                                               3
 ACTION:UPD 14-01-08 09:44 OP:ep   STATUS:               ID:20130511004738 L   I
 2013-05-11-0047-41M.COL___227                                                 6
 STAT SP IPHASW D HRMM SECON CODA AMPLIT PERI AZIMU VELO AIN AR TRES W  DIS CAZ7
 GUA  SZ EP   1    048  8.00                              37    0.14 8  189 223 
 GUA  SN ES   1    048 31.10                              37    0.15 8  189 223 
 GUA  SZ I         048 34.06       150.3 0.16             37            189 223 
 YOP  SZ EP   1    048  8.98                              37   -0.79 8  204 328 
 YOP  SN ES   1    048 34.67                              37    0.33 8  204 328 
 VIL  SE ES        048 45.22                              37    0.2710  251 278 
 VIL  SZ I         048 58.95       114.0 0.32             37            251 278 
 CHI  HN ES        048 49.38                              37   -0.2310  269 290 
 CHI  HZ I         048 52.03        33.9 0.26             36            269 290 
 TAM  HZ I         048 55.13        23.3 0.34             36            295 353 
 TAM  HN ES   2    048 55.60                              36    1.03 5  295 353 
 PRA  HE ES        049 13.18                              36   -0.28 8  381 269 
 PRA  HZ I         049 33.23        14.5 0.42             36            381 269 
                                                                                
 2013  511 0119 41.7 L   3.763 -71.235  8.0  RSN 17 0.5 3.8LRSN 4.0WRSN        1
 SPEC AVERAGE  MO 15.1 ST 21.4 OM  3.8 f0 2.02 R0.8707 AL 2.33 WI 50.2 MW  4.0 3
 SPEC SD       MO  0.3 ST 37.1 OM  0.5 f00.868 R0.2514 AL      WI      MW  0.2 3
 GAP=241        0.77       3.4     7.2  7.9 -0.1339E+02  0.3081E+02 -0.4469E+01E
 Epicentro: PUERTO GAITAN - META                                               3
 Evento sentido                                                                2
 REPORTADO COMO SENTIDO EN:                                                    3
 PUERTO GAITAN (META)                                                          3
 SPEC YOT HH N MO 14.6 ST  2.7 OM  2.8 f0 1.84 R0.8446 AL 1.91 WI 56.7 MW  3.7 3
 SPEC YOT HH N T 12210 K 0.000 GD  238 VS 4.20 DE 3.20 Q0300.0 QA 0.60 VS 4.20 3
 SPEC PAM SH N MO 14.7 ST  9.5 OM  3.0 f0 2.51 R0.6191 AL 2.86 WI 76.2 MW  3.8 3
 SPEC PAM SH N T 12122 K 0.000 GD  206 VS 4.20 DE 3.20 Q0300.0 QA 0.60 VS 4.20 3
 SPEC PRA HH N MO 14.8 ST  2.2 OM  3.1 f0 1.43 R1.0867 AL 1.67 WI 69.2 MW  3.8 3
 SPEC PRA HH N T 12116 K 0.000 GD  201 VS 4.20 DE 3.20 Q0300.0 QA 0.60 VS 4.20 3
 SPEC YOP SH N MO 15.4 ST 12.0 OM  3.8 f0 1.64 R0.9476 AL 2.96 WI 40.2 MW  4.2 3
 SPEC YOP SH N T 12040 K 0.000 GD  148 VS 4.20 DE 3.20 Q0300.0 QA 0.60 VS 4.20 3
 SPEC TAM HH N MO 15.2 ST  5.0 OM  3.6 f0 1.35 R1.1511 AL 1.57 WI 64.9 MW  4.1 3
 SPEC TAM HH N T 12053 K 0.000 GD  173 VS 4.20 DE 3.20 Q0300.0 QA 0.60 VS 4.20 3
 SPEC RUS HH N MO 15.0 ST  3.5 OM  3.4 f0 1.39 R1.1180 AL 2.90 WI 30.6 MW  4.0 3
 SPEC RUS HH N T 12059 K 0.000 GD  176 VS 4.20 DE 3.20 Q0300.0 QA 0.60 VS 4.20 3
 SPEC FLO2HH N MO 15.4 ST  9.5 OM  3.6 f0 1.52 R1.0224 AL 2.33 WI 64.4 MW  4.2 3
 SPEC FLO2HH N T 122 0 K 0.000 GD  233 VS 4.20 DE 3.20 Q0300.0 QA 0.60 VS 4.20 3
 SPEC CHI HH N MO 15.2 ST 23.8 OM  3.6 f0 2.29 R0.6786 AL 2.42 WI 34.2 MW  4.1 3
 SPEC CHI HH N T 12054 K 0.000 GD  171 VS 4.20 DE 3.20 Q0300.0 QA 0.60 VS 4.20 3
 SPEC GUA SH N MO 15.2 ST124.7 OM  3.6 f0 4.22 R0.3682 AL 2.33 WI 15.1 MW  4.0 3
 SPEC GUA SH N T 12035 K 0.000 GD  143 VS 4.20 DE 3.20 Q0300.0 QA 0.60 VS 4.20 3
 ACTION:UPD 14-01-08 09:44 OP:ep   STATUS:               ID:20130511011941 L   I
 OLDACT:UP  13-06-18 08:39 OP:ep   STATUS:               ID:20130511011941 L   3
 2013-05-11-0120-00M.COL___256                                                 6
 STAT SP IPHASW D HRMM SECON CODA AMPLIT PERI AZIMU VELO AIN AR TRES W  DIS CAZ7
 GUA  SZ EP        120 12.26                              56    0.0110  205 229 
 GUA  SN ES        120 36.31                              56    0.2110  205 229 
 GUA  SZ I         120 38.71       960.0 0.24            107            205 229 
 YOP  SZ EP   2    120 14.51                              56    0.32 5  220 323 
 YOP  SN ES   1    120 40.33                              56    0.78 7  220 323 
 YOP  SZ I         120 47.57       860.4 0.32            104            220 323 
 VIL  SZ EP        120 21.51                              56    0.28 9  276 278 
 VIL  SN ES        120 51.65                              56   -0.42 9  276 278 
 VIL  SZ I         120 58.72      1242.9 0.40            100            276 278 
 CHI  HZ EP        120 23.18                              55   -0.57 9  293 289 
 CHI  HN ES   4    120 55.24                              55   -1.32 0  293 289 
 CHI  HZ I         121 20.31       383.0 0.62             99            293 289 
 TAM  HZ EP        120 24.45                              55    0.09 8  302 348 
 TAM  HN ES        120 57.80                              55    0.15 8  302 348 
 TAM  HZ I         121  5.73       276.9 0.22             99            302 348 
 RUS  HZ EP   4    120 25.42                              55   -0.76 0  312 319 
 RUS  HN ES   4    121  0.70                              55   -0.19 0  312 319 
 RUS  HZ I         121 18.80       139.8 0.54             98            312 319 
 ROSC BZ EP   4    120 33.25                              55    0.97 0  363 289 
 ROSC BN ES   4    121 13.92                              55    2.18 0  363 289 
 BAR2 SZ EP        120 33.62                              55   -0.63 7  380 325 
 PRA  HZ EP   1    120 38.02                              55    0.85 5  406 269 
 PRA  HN ES        121 20.40                              55   -0.05 7  406 269 
 GIR2 SZ EP        120 39.09                              55   -0.72 6  426 329 
 GIR2 SZ IPg       120 46.74                              91   -0.24 6  426 329 
 PAM  SZ EP        120 39.95                              55   -0.46 6  428 338 
 PAM  SN IPg       120 48.34                              91    0.78 6  428 338 
 PAM  SZ I         121 52.01       108.8 0.36             55            428 338 
 NOR  HZ EP   4    120 42.04                              55   -0.58 0  450 296 
 NOR  HE ES   4    121 27.95                              55   -2.20 0  450 296 
 NOR  HZ I         121 51.58        85.9 0.58             91            450 296 
 BRR  HZ EP   4    120 42.65                              55   -1.24 0  461 324 
 BRR  HN ES   4    121 28.29                              55   -4.13 0  461 324 
 PTB  HZ EP   4    120 54.50                              55    9.30 0  471 311 
 PTB  HE ES   4    121 44.26                              55    9.51 0  471 311 
 PTB  HZ I         121 56.39        48.4 0.30             90            471 311 
 BET  SZ EP   4    120 54.76                              55    8.08 0  483 256 
 BET  SZ ES   4    121 51.86                              55   14.48 0  483 256 
 MARA HZ EP   4    121  3.62                              55   10.28 0  534 259 
 MARA HN ES   4    122  5.13                              55   15.89 0  534 259 
 MARA HZ I         122 10.67        76.5 0.56             90            534 259 
 FLO2 HZ EP   2    120 55.02                              55    0.39 2  547 244 
 FLO2 HZ I         122 18.38       146.2 0.64             90            547 244 
 HEL  HZ EP   4    120 54.15                              55   -0.82 0  547 300 
 HEL  HN ES   4    121 49.35                              55   -2.79 0  547 300 
 YOT  HZ EP   4    120 56.30                              55   -1.02 0  568 273 
 YOT  HN ES   4    121 52.94                              55   -3.38 0  568 273 
 ZAR  HZ EP   4    120 57.45                              55   -0.64 0  575 316 
 ZAR  HN ES   4    121 53.29                              55   -4.40 0  575 316 
 PCON HZ EP   4    121  8.99                              55    7.76 0  595 255 
 PCON HN ES   4    122 23.91                              55   20.63 0  595 255 
 PCON HZ I         122 36.16       120.8 0.54             90            595 255 
 SOTA HZ EP   4    121  5.76                              55    1.10 0  624 253 
 SOTA HN ES   4    122 33.84                              55   24.46 0  624 253 
 URE  HZ EP   4    121  3.29                              55   -3.88 0  649 313 
 URE  HN ES   4    122 10.07                              55   -3.77 0  649 313 
 GCUF HZ EP   4    121 26.43                              55    8.03 0  735 248 
 GCUF HE ES   4    122 57.72                              55   23.88 0  735 248 
 GCUF HZ I         123 16.91        39.9 0.78             90            735 248 
 SJC  HZ EP   4    121 25.68                              55   -0.97 0  806 327 
 SJC  HN ES   4    122 43.78                              55   -4.75 0  806 327 
 URI  HZ EP   2    121 22.92                              55   -13.0 0  882 355 
 URI  HN ES   4    122 55.02                              55   -10.0 0  882 355 
                                                                                
