 2013  511 0214 56.0 L   3.715 -71.271  0.0  RSN  7 0.5 2.8LRSN                1
 GAP=240        0.87       4.7     9.8  7.8 -0.2825E+02  0.5210E+02 -0.1960E+02E
 Epicentro: PUERTO GAITAN - META                                               3
 ACTION:UPD 14-01-08 09:45 OP:ep   STATUS:               ID:20130511021456 L   I
 2013-05-11-0210-00M.COL___256                                                 6
 STAT SP IPHASW D HRMM SECON CODA AMPLIT PERI AZIMU VELO AIN AR TRES W  DIS CAZ7
 GUA  SZ EP        215 26.12                              37   -0.6010  199 229 
 GUA  SN ES   1    215 51.20                              37    0.48 7  199 229 
 GUA  SZ I         215 55.05       154.6 0.26             37            199 229 
 YOP  SZ EP        215 30.01                              37    0.3010  222 325 
 YOP  SE ES   2    215 56.05                              37    0.02 5  222 325 
 VIL  SZ EP        215 36.85                              37    0.74 9  273 279 
 VIL  SN ES        216  7.06                              37   -0.37 9  273 279 
 VIL  SZ I         216 19.10        91.3 0.28             36            273 279 
 CHI  HZ EP        215 38.20                              37   -0.59 8  291 290 
 CHI  HN ES   4    216  9.02                              37   -3.18 0  291 290 
 CHI  HZ I         216 12.19        43.5 0.28             36            291 290 
 TAM  HZ EP   2    215 40.93                              36    0.74 4  306 349 
 TAM  HN ES        216 14.79                              36    0.09 8  306 349 
 RUS  HZ EP        215 41.47                              36   -0.17 8  314 320 
 RUS  HE ES        216 16.92                              36   -0.36 8  314 320 
 RUS  HZ I         216 29.12        13.8 0.46             36            314 320 
 PRA  HZ EP   2    215 52.60                              36    0.64 3  402 270 
 PRA  HN ES        216 36.26                              36    0.62 7  402 270 
 PRA  HZ I         216 58.70        15.5 0.64             36            402 270 
 PAM  SZ EP   4    216  4.11                              36    7.99 0  431 339 
 PAM  SN ES   4    216 47.39                              36    4.35 0  431 339 
 NOR  HN ES   4    216 40.85                              36   -5.12 0  448 297 
 PTB  HZ EP   4    216  6.18                              36    5.63 0  471 312 
                                                                                
 2013  513 0521 56.7 L   3.722 -71.426  4.1  RSN  7 0.7 3.3LRSN 3.7WRSN        1
 SPEC AVERAGE  MO 14.6 ST  5.9 OM  3.2 f0 1.95 R0.8341 AL 2.23 WI 31.5 MW  3.7 3
 SPEC SD       MO  0.3 ST  5.5 OM  0.4 f00.439 R0.1730 AL      WI      MW  0.2 3
 GAP=233        1.11       5.0    11.2 10.4 -0.2170E+02  0.3682E+02 -0.2296E+01E
 Epicentro: PUERTO GAITAN - META                                               3
 SPEC VIL SH E MO 15.1 ST 13.8 OM  3.5 f0 2.11 R0.7365 AL 2.64 WI 38.4 MW  4.0 3
 SPEC VIL SH E T 523 2 K 0.000 GD  159 VS 4.20 DE 3.20 Q0300.0 QA 0.60 VS 4.20 3
 SPEC RUS HH N MO 14.4 ST0.876 OM  2.8 f0 1.40 R1.1100 AL 2.15 WI 37.2 MW  3.6 3
 SPEC RUS HH N T 52310 K 0.000 GD  173 VS 4.20 DE 3.20 Q0300.0 QA 0.60 VS 4.20 3
 SPEC PRA HH N MO 14.2 ST0.711 OM  2.5 f0 1.58 R0.9835 AL 1.78 WI 39.1 MW  3.4 3
 SPEC PRA HH N T 52331 K 0.000 GD  195 VS 4.20 DE 3.20 Q0300.0 QA 0.60 VS 4.20 3
 SPEC TAM HH N MO 14.5 ST  6.8 OM  2.9 f0 2.56 R0.6070 AL 2.12 WI  8.8 MW  3.6 3
 SPEC TAM HH N T 52314 K 0.000 GD  174 VS 4.20 DE 3.20 Q0300.0 QA 0.60 VS 4.20 3
 SPEC FLO2HH N MO 14.9 ST  4.0 OM  3.1 f0 1.68 R0.9250 AL 2.75 WI 34.1 MW  3.8 3
 SPEC FLO2HH N T 52415 K 0.000 GD  229 VS 4.20 DE 3.20 Q0300.0 QA 0.60 VS 4.20 3
 SPEC BRR HH N MO 14.2 ST  1.2 OM  2.5 f0 1.84 R0.8446 AL 2.08 WI 47.5 MW  3.4 3
 SPEC BRR HH N T 52340 K 0.000 GD  212 VS 4.20 DE 3.20 Q0300.0 QA 0.60 VS 4.20 3
 SPEC CHI HH N MO 14.8 ST  4.0 OM  3.2 f0 1.74 R0.8931 AL 2.30 WI 29.5 MW  3.8 3
 SPEC CHI HH N T 523 6 K 0.000 GD  165 VS 4.20 DE 3.20 Q0300.0 QA 0.60 VS 4.20 3
 SPEC GUA SH N MO 14.8 ST 15.8 OM  3.3 f0 2.71 R0.5734 AL 2.05 WI 17.7 MW  3.8 3
 SPEC GUA SH N T 52248 K 0.000 GD  136 VS 4.20 DE 3.20 Q0300.0 QA 0.60 VS 4.20 3
 ACTION:UPD 14-01-08 09:45 OP:ep   STATUS:               ID:20130513052156 L   I
 OLDACT:UP  13-05-20 05:58 OP:CAM  STATUS:               ID:20130513052156 L   3
 2013-05-13-0520-00M.COL___256                                                 6
 STAT SP IPHASW D HRMM SECON CODA AMPLIT PERI AZIMU VELO AIN AR TRES W  DIS CAZ7
 GUA  SZ IP     C  522 24.75                              56   -0.5410  186 226 
 GUA  SN ES        522 48.20                              56    0.6310  186 226 
 GUA  SZ I         522 52.73       319.1 0.30             56            186 226 
 VIL  SZ EP   1    522 33.72                              56   -0.35 7  255 280 
 VIL  SE ES   1    523  3.71                              56    0.51 7  255 280 
 VIL  SZ I         523 19.01       403.9 0.40             55            255 280 
 CHI  HZ EP   1    522 35.83                              56   -1.01 6  275 291 
 CHI  HN ES   1    523  7.34                              56   -0.80 6  275 291 
 CHI  HZ I         523 23.01       116.7 0.54             55            275 291 
 RUS  HZ EP   4    522 38.33                              55   -2.02 0  302 323 
 RUS  HZ IPg       522 43.02                              90   -0.62 8  302 323 
 RUS  HN ES   4    523 10.92                              55   -3.45 0  302 323 
 RUS  HZ I         523 30.39        51.6 0.50             55            302 323 
 TAM  HZ EP   4    522 33.67                              55   -6.19 0  303 352 
 TAM  HN ES        523 14.47                              55    0.97 8  303 352 
 ROSC BZ EP   4    522 45.25                              55   -0.15 0  344 291 
 BAR2 SZ EP   4    522 44.89                              55   -3.79 0  372 329 
 PRA  HZ EP        522 50.57                              55    0.64 7  384 270 
 PRA  HN ES   2    523 32.14                              55    0.72 3  384 270 
 PRA  HZ I         523 56.02        55.0 0.42             55            384 270 
 PAM  SZ EP   4    523  1.40                              55    6.01 0  424 341 
 PAM  SN ES   4    523 34.93                              55   -6.21 0  424 341 
 BRR  HN ES   4    523 41.95                              55   -4.24 0  452 326 
 PTB  HZ EP   4    522 56.86                              55   -2.15 0  458 313 
 MARA HZ EP   4    523 15.68                              55    9.63 0  513 259 
 FLO2 HZ EP   1    523  7.39                              55   -0.02 3  526 243 
 FLO2 HZ EPg       523 16.97                              90   -0.10 4  526 243 
 FLO2 HN ES   4    524 16.67                              55   14.12 0  526 243 
 FLO2 HZ I         524 27.89        43.5 0.40             55            526 243 
 YOT  HZ EP   4    523  8.58                              55   -1.54 0  547 273 
 YOT  HN ES   4    524  3.57                              55   -3.79 0  547 273 
 PCON HZ EP   4    523 21.40                              55    7.46 0  574 255 
 PCON HN ES   4    524 36.95                              55   22.78 0  574 255 
 POP2 HZ EP   4    523 15.22                              55   -1.31 0  598 258 
 POP2 HN ES   4    524 36.81                              55   18.03 0  598 258 
                                                                                
 2013  514 0606 28.8 L   3.779 -71.498  3.6  RSN  4 0.3 2.0LRSN                1
 GAP=229        0.46       3.2     6.6  5.3 -0.1148E+02  0.8266E+01 -0.1258E+01E
 Epicentro: PUERTO GAITAN - META                                               3
 ACTION:UPD 14-01-08 09:45 OP:ep   STATUS:               ID:20130514060628 L   I
 2013-05-14-0600-00M.COL___256                                                 6
 STAT SP IPHASW D HRMM SECON CODA AMPLIT PERI AZIMU VELO AIN AR TRES W  DIS CAZ7
 GUA  SN ES   1    6 7 19.46                              37   -0.0511  185 223 
 GUA  SZ I         6 7 24.08        29.5 0.27            127            185 223 
 CHI  HZ EP   1    6 7  7.63                              37   -0.10 9  265 291 
 CHI  HN ES   1    6 7 37.99                              37   -0.15 9  265 291 
 CHI  HZ I         6 7 47.56         5.4 0.42            115            265 291 
 TAM  HZ EP   2    6 7 10.43                              36   -0.63 6  296 354 
 TAM  HN ES   1    6 7 44.25                              36    0.19 9  296 354 
 TAM  HZ I         6 7 48.50         6.0 0.27            113            296 354 
 PRA  HZ EP        6 7 21.41                              36    0.3610  376 269 
                                                                                
 2013  516 0045 10.2 L   3.793 -71.512  0.0  RSN  7 0.4 2.2LRSN                1
 GAP=228        0.68       3.8     8.1  8.5 -0.1534E+02  0.3756E+02 -0.5764E+01E
 Epicentro: PUERTO GAITAN - META                                               3
 ACTION:UPD 14-01-08 09:46 OP:ep   STATUS:               ID:20130516004510 L   I
 2013-05-16-0040-00M.COL___256                                                 6
 STAT SP IPHASW D HRMM SECON CODA AMPLIT PERI AZIMU VELO AIN AR TRES W  DIS CAZ7
 GUA  SN ES   1    046  1.88                              37   -0.17 7  185 222 
 YOP  SZ EP   1    045 40.94                              37   -0.32 6  200 330 
 YOP  SN ES   1    046  4.97                              37   -0.50 6  200 330 
 YOP  SZ I         046  7.70        33.9 0.32             37            200 330 
 VIL  SN ES   1    046 15.36                              37   -0.15 6  245 278 
 VIL  SZ I         046 22.83        33.2 0.24             37            245 278 
 CHI  HN ES   1    046 20.15                              37   -0.06 6  263 291 
 CHI  HZ I         046 22.73        11.0 0.44             37            263 291 
 RUS  HZ EP   1    045 53.43                              37    0.41 5  290 323 
 RUS  HN ES   1    046 26.31                              37   -0.09 5  290 323 
 RUS  HZ I         046 32.94         2.8 0.48             36            290 323 
 TAM  HE ES   1    046 26.84                              37    0.61 5  294 354 
 TAM  HZ I         046 34.88        10.3 0.24             36            294 354 
 PRA  HN ES   1    046 45.03                              36    0.99 5  375 269 
                                                                                
 2013  517 0636 39.9 L   3.779 -71.339  8.7  RSN 18 0.6 3.5LRSN 4.1WRSN        1
 SPEC AVERAGE  MO 15.2 ST  9.6 OM  4.2 f0 1.28 R1.6938 AL 1.39 WI 40.3 MW  4.1 3
 SPEC SD       MO  0.2 ST 15.6 OM  0.7 f00.751 R1.0047 AL      WI      MW  0.2 3
 GAP=231        0.94       3.6     7.3  6.6 -0.1465E+02  0.1670E+02 -0.1240E+02E
 Epicentro: PUERTO GAITAN - META                                               3
 SPEC VIL SH N MO 15.7 ST  6.1 OM  4.1 f0 1.01 R1.5386 AL 1.51 WI 60.7 MW  4.4 3
 SPEC VIL SH N T 63747 K 0.000 GD  162 VS 4.20 DE 3.20 Q0300.0 QA 0.60 VS 4.20 3
 SPEC TAM HH N MO 15.1 ST0.115 OM  3.5 f00.417 R3.7266 AL 0.58 WI 22.5 MW  4.0 3
 SPEC TAM HH N T 63754 K 0.000 GD  172 VS 4.20 DE 3.20 Q0300.0 QA 0.60 VS 4.20 3
 SPEC YOP SH N MO 15.1 ST  1.9 OM  3.5 f0 1.12 R1.3875 AL 1.29 WI 34.4 MW  4.0 3
 SPEC YOP SH N T 63734 K 0.000 GD  145 VS 4.20 DE 3.20 Q0300.0 QA 0.60 VS 4.20 3
 SPEC FLO2HH N MO 15.3 ST  1.1 OM  3.5 f00.803 R1.9352 AL 1.61 WI 65.9 MW  4.1 3
 SPEC FLO2HH N T 63853 K 0.000 GD  231 VS 4.20 DE 3.20 Q0300.0 QA 0.60 VS 4.20 3
 SPEC CHI HH N MO 15.0 ST  4.4 OM  3.4 f0 1.53 R1.0157 AL 1.60 WI 38.4 MW  4.0 3
 SPEC CHI HH N T 63750 K 0.000 GD  167 VS 4.20 DE 3.20 Q0300.0 QA 0.60 VS 4.20 3
 SPEC GUA SH N MO 15.2 ST 44.1 OM  3.7 f0 2.78 R0.5590 AL 1.75 WI 19.8 MW  4.1 3
 SPEC GUA SH N T 63732 K 0.000 GD  140 VS 4.20 DE 3.20 Q0300.0 QA 0.60 VS 4.20 3
 ACTION:UPD 14-01-08 09:46 OP:ep   STATUS:               ID:20130517063639 L   I
 2013-05-17-0635-44M.COL___225                                                 6
 STAT SP IPHASW D HRMM SECON CODA AMPLIT PERI AZIMU VELO AIN AR TRES W  DIS CAZ7
 GUA  SZ EP   1    637  9.18                              56   -0.33 7  198 226 
 GUA  SZ EPg       637 11.04                              91    0.5410  198 226 
 GUA  SN ESg       637 33.73                              91   -0.6210  198 226 
 GUA  SZ I         637 35.18       590.9 0.18             90            198 226 
 YOP  SZ EP        637 12.12                              56    0.7810  211 325 
 YOP  SN ES   1    637 36.69                              56    0.85 7  211 325 
 YOP  SZ I         637 39.61       464.0 0.28             90            211 325 
 VIL  SZ EP        637 17.97                              56    0.04 9  264 278 
 VIL  SN ES   1    637 48.02                              56    0.43 7  264 278 
 VIL  SZ I         637 53.02       802.6 0.24             90            264 278 
 CHI  HZ EP        637 20.09                              56   -0.40 9  282 290 
 CHI  HN ES   1    637 51.38                              56   -0.76 6  282 290 
 CHI  HZ I         637 54.19       249.9 0.22             81            282 290 
 TAM  HZ EP        637 21.20                              55   -0.85 8  298 350 
 TAM  HN ES   1    637 54.78                              55   -0.13 6  298 350 
 TAM  HZ I         638  3.93       203.0 0.31             81            298 350 
 RUS  HZ EP        637 22.76                              55   -0.50 8  303 320 
 RUS  HN ES   1    637 56.50                              55   -0.56 6  303 320 
 ROSC BZ EP        637 29.63                              55    0.60 7  351 290 
 BAR2 SZ EP   4    637 29.92                              55   -1.52 0  372 327 
 BAR2 SZ EPg  4    637 38.17                              91    1.02 0  372 327 
 BAR2 SZ I         638 25.97        66.6 0.29             81            372 327 
 PRA  HZ EP     C  637 34.91                              55    1.00 7  394 269 
 PRA  HN ES   1    638 16.65                              55    0.62 5  394 269 
 PRA  HZ I         638 40.45       134.8 0.34             81            394 269 
 GIR2 SZ EP   4    637 35.73                              55   -1.35 0  419 331 
 PAM  SZ EP   4    637 36.81                              55   -1.04 0  422 339 
 PAM  SZ EPg       637 45.66                              91    0.77 6  422 339 
 PAM  SN ESg       638 35.08                              91   -0.49 6  422 339 
 NOR  HZ EP   1    637 39.12                              55   -0.29 5  439 297 
 BRR  HZ EP   1    637 39.97                              55   -1.07 4  452 325 
 BRR  HZ EPg       637 49.18                              91    0.14 6  452 325 
 BRR  HZ I         638 49.74        16.0 0.28             81            452 325 
 PTB  HZ EP   4    637 39.15                              55   -3.00 0  461 312 
 PTB  HZ I         638 53.14        20.5 0.45             81            461 312 
 FLO2 HZ EP        637 51.74                              55    0.13 4  538 243 
 FLO2 HZ EPg  1    638  2.10                              90    0.10 3  538 243 
 FLO2 HZ I         639  8.84        98.4 0.44             81            538 243 
 OCA  HZ EP   4    637 50.67                              55   -1.35 0  540 336 
 OCA  HZ EPg  4    638  5.76                              90    3.32 0  540 336 
 OCA  HN ES   1    638 47.61                              55   -0.65 3  540 336 
 OCA  HN ESg       639  6.40                              90   -0.41 4  540 336 
 YOT  HZ EP   1    637 53.15                              55   -0.90 3  556 272 
 ZAR  HZ EP   1    637 55.21                              55    0.10 3  566 317 
 PTLC HZ EP   1    637 56.28                              55   -0.79 3  582 221 
 PTLC HZ EPg  1    638  9.33                              90    0.63 3  582 221 
 PTLC HZ I         639 29.64        60.2 0.40             81            582 221 
 SOTA HZ EP   4    638  2.95                              55    1.42 0  613 253 
                                                                                
 2013  518 1001  6.8 L   3.751 -71.314  0.0  RSN  9 0.5 2.6LRSN 3.2WRSN        1
 SPEC AVERAGE  MO 13.9 ST  3.7 OM  2.7 f0 2.69 R0.6404 AL 1.88 WI 75.6 MW  3.2 3
 SPEC SD       MO  0.2 ST  4.9 OM  0.5 f00.949 R0.1857 AL      WI      MW  0.2 3
 GAP=220        0.70       4.7     8.6  8.2 -0.2709E+02  0.5521E+02 -0.2562E+02E
 Epicentro: PUERTO GAITAN - META                                               3
 SPEC YOP SH N MO 14.1 ST  1.9 OM  2.5 f0 2.43 R0.6395 AL 1.88 WI 64.6 MW  3.3 3
 SPEC YOP SH N T10 2 0 K 0.000 GD  146 VS 4.20 DE 3.20 Q0300.0 QA 0.60 VS 4.20 3
 SPEC TAM HH N MO 13.9 ST  4.1 OM  2.3 f0 3.45 R0.4504 AL 1.95 WI 85.1 MW  3.2 3
 SPEC TAM HH N T10 219 K 0.000 GD  173 VS 4.20 DE 3.20 Q0300.0 QA 0.60 VS 4.20 3
 SPEC PRA HH N MO 13.4 ST0.273 OM  1.7 f0 2.11 R0.7365 AL 1.87 WI 85.1 MW  2.9 3
 SPEC PRA HH N T10 238 K 0.000 GD  199 VS 4.20 DE 3.20 Q0300.0 QA 0.60 VS 4.20 3
 SPEC FLO2HH N MO 14.1 ST0.760 OM  2.3 f0 1.78 R0.8730 AL 1.70 WI 97.5 MW  3.3 3
 SPEC FLO2HH N T10 329 K 0.000 GD  232 VS 4.20 DE 3.20 Q0300.0 QA 0.60 VS 4.20 3
 SPEC CHI HH N MO 13.9 ST0.738 OM  2.3 f0 1.96 R0.7929 AL 1.56 WI 83.4 MW  3.2 3
 SPEC CHI HH N T10 217 K 0.000 GD  168 VS 4.20 DE 3.20 Q0300.0 QA 0.60 VS 4.20 3
 SPEC GUA SH N MO 14.1 ST 14.3 OM  2.6 f0 4.44 R0.3500 AL 2.35 WI 37.8 MW  3.4 3
 SPEC GUA SH N T10 2 1 K 0.000 GD  140 VS 4.20 DE 3.20 Q0300.0 QA 0.60 VS 4.20 3
 ACTION:UPD 14-01-08 09:47 OP:ep   STATUS:               ID:20130518100106 L   I
 2013-05-18-1000-00M.COL___256                                                 6
 STAT SP IPHASW D HRMM SECON CODA AMPLIT PERI AZIMU VELO AIN AR TRES W  DIS CAZ7
 GUA  SZ EP   1   10 1 37.50                              37    0.03 8  198 228 
 GUA  SN ES   2   10 2  1.89                              37    0.51 5  198 228 
 GUA  SZ I        10 2  5.77        74.1 0.36             37            198 228 
 YOP  SZ EP   1   10 1 40.38                              37    0.56 7  216 325 
 YOP  SN ES       10 2  5.77                              37    0.2110  216 325 
 YOP  SZ I        10 2 16.40        49.4 0.48             37            216 325 
 VIL  SZ EP   1   10 1 46.41                              37    0.11 7  267 279 
 VIL  SN ES       10 2 17.44                              37    0.33 9  267 279 
 VIL  SZ I        10 2 32.29        73.8 0.32             37            267 279 
 CHI  HZ EP   1   10 1 48.33                              37   -0.59 7  285 290 
 CHI  HN ES   1   10 2 21.12                              37   -0.64 7  285 290 
 CHI  HZ I        10 2 36.24        23.3 0.50             37            285 290 
 TAM  HZ EP   1   10 1 50.25                              36   -0.21 6  301 350 
 TAM  HN ES   1   10 2 24.97                              36    0.47 6  301 350 
 TAM  HZ I        10 2 35.03        25.4 0.30             36            301 350 
 RUS  HZ EP   1   10 1 51.89                              36    0.14 6  308 320 
 RUS  HN ES       10 2 26.28                              36   -0.52 8  308 320 
 RUS  HZ I        10 2 43.67         8.8 0.44             36            308 320 
 PRA  HZ EP   2   10 2  0.89                              36   -1.34 3  397 270 
 PRA  HN ES       10 2 45.45                              36   -0.01 7  397 270 
 PRA  HZ I        10 3  9.27        11.6 0.34             36            397 270 
 FLO2 HZ EP   4   10 2 28.06                              36    8.32 0  539 244 
 FLO2 HN ES   4   10 3 31.95                              36   15.33 0  539 244 
 FLO2 HZ I        10 3 44.16         9.1 0.48             36            539 244 
 SDV  BZ EP   1   10 2 22.90                              36   -1.17 3  572   8 
 SDV  BZ I        10 3 53.12         6.5 0.40             36            572   8 
                                                                                
