 2013  416 0300 23.9 L   3.805 -71.294  6.3  RSN 18 0.6 3.8LRSN 3.8WRSN        1
 SPEC AVERAGE  MO 14.8 ST  2.9 OM  3.2 f0 1.46 R1.2007 AL 2.07 WI 44.7 MW  3.8 3
 SPEC SD       MO  0.2 ST  3.5 OM  0.3 f00.573 R0.3966 AL      WI      MW  0.2 3
 GAP=238        0.83       4.3     8.7 13.4 -0.2190E+02  0.7532E+02 -0.3068E+02E
 Epicentro: PUERTO GAITAN - META                                               3
 SPEC DBB SH Z MO 14.9 ST  2.4 OM  3.1 f0 1.36 R1.1426 AL 2.40 WI 66.6 MW  3.9 3
 SPEC DBB SH Z T 3 250 K 0.000 GD  254 VS 4.20 DE 3.20 Q0300.0 QA 0.60 VS 4.20 3
 SPEC PCONHH Z MO 15.1 ST  2.5 OM  3.3 f0 1.21 R1.2843 AL 2.04 WI 63.6 MW  4.0 3
 SPEC PCONHH Z T 3 259 K 0.000 GD  242 VS 4.20 DE 3.20 Q0300.0 QA 0.60 VS 4.20 3
 SPEC YOT HH Z MO 14.7 ST0.245 OM  2.9 f00.765 R2.0314 AL 1.92 WI 54.5 MW  3.7 3
 SPEC YOT HH Z T 3 233 K 0.000 GD  236 VS 4.20 DE 3.20 Q0300.0 QA 0.60 VS 4.20 3
 SPEC FLO2HH Z MO 15.0 ST  2.0 OM  3.2 f0 1.22 R1.2738 AL 2.13 WI 46.3 MW  3.9 3
 SPEC FLO2HH Z T 3 243 K 0.000 GD  233 VS 4.20 DE 3.20 Q0300.0 QA 0.60 VS 4.20 3
 SPEC OCA HH Z MO 14.8 ST  4.2 OM  3.0 f0 1.84 R0.8446 AL 2.24 WI 65.6 MW  3.8 3
 SPEC OCA HH Z T 3 247 K 0.000 GD  232 VS 4.20 DE 3.20 Q0300.0 QA 0.60 VS 4.20 3
 SPEC MARAHH Z MO 14.7 ST  1.7 OM  2.9 f0 1.47 R1.0571 AL 1.13 WI 32.5 MW  3.7 3
 SPEC MARAHH Z T 3 245 K 0.000 GD  230 VS 4.20 DE 3.20 Q0300.0 QA 0.60 VS 4.20 3
 SPEC PTB HH Z MO 14.3 ST0.911 OM  2.6 f0 1.54 R1.0091 AL 1.83 WI 39.7 MW  3.5 3
 SPEC PTB HH Z T 3 224 K 0.000 GD  215 VS 4.20 DE 3.20 Q0300.0 QA 0.60 VS 4.20 3
 SPEC BRR HH Z MO 14.9 ST0.607 OM  3.2 f00.852 R1.8239 AL 1.89 WI 56.1 MW  3.9 3
 SPEC BRR HH Z T 3 229 K 0.000 GD  212 VS 4.20 DE 3.20 Q0300.0 QA 0.60 VS 4.20 3
 SPEC PAM SH Z MO 14.6 ST  3.0 OM  2.9 f0 1.84 R0.8446 AL 2.23 WI 48.6 MW  3.7 3
 SPEC PAM SH Z T 3 2 3 K 0.000 GD  205 VS 4.20 DE 3.20 Q0300.0 QA 0.60 VS 4.20 3
 SPEC GIR2SH Z MO 14.6 ST  2.8 OM  2.9 f0 1.81 R0.8586 AL 2.69 WI 30.2 MW  3.7 3
 SPEC GIR2SH Z T 3 216 K 0.000 GD  204 VS 4.20 DE 3.20 Q0300.0 QA 0.60 VS 4.20 3
 SPEC PRA HH Z MO 14.7 ST0.447 OM  3.0 f00.916 R1.6965 AL 1.71 WI 41.6 MW  3.7 3
 SPEC PRA HH Z T 3 210 K 0.000 GD  199 VS 4.20 DE 3.20 Q0300.0 QA 0.60 VS 4.20 3
 SPEC BAR2SH Z MO 15.2 ST  1.4 OM  3.5 f00.916 R1.6965 AL 1.94 WI 66.6 MW  4.1 3
 SPEC BAR2SH Z T 3 152 K 0.000 GD  193 VS 4.20 DE 3.20 Q0300.0 QA 0.60 VS 4.20 3
 SPEC ROSCBH Z MO 14.8 ST0.711 OM  3.1 f0 1.01 R1.5386 AL 2.45 WI 38.5 MW  3.8 3
 SPEC ROSCBH Z T 3 157 K 0.000 GD  188 VS 4.20 DE 3.20 Q0300.0 QA 0.60 VS 4.20 3
 SPEC RUS HH Z MO 14.5 ST  1.2 OM  2.9 f0 1.42 R1.0944 AL 2.31 WI 32.9 MW  3.6 3
 SPEC RUS HH Z T 3 143 K 0.000 GD  174 VS 4.20 DE 3.20 Q0300.0 QA 0.60 VS 4.20 3
 SPEC TAM HH Z MO 14.7 ST  3.0 OM  3.1 f0 1.68 R0.9250 AL 1.62 WI 37.9 MW  3.8 3
 SPEC TAM HH Z T 3 140 K 0.000 GD  172 VS 4.20 DE 3.20 Q0300.0 QA 0.60 VS 4.20 3
 SPEC CHI HH Z MO 14.7 ST  2.2 OM  3.1 f0 1.53 R1.0157 AL 1.99 WI 33.1 MW  3.8 3
 SPEC CHI HH Z T 3 136 K 0.000 GD  169 VS 4.20 DE 3.20 Q0300.0 QA 0.60 VS 4.20 3
 SPEC VIL SH Z MO 15.2 ST  6.8 OM  3.6 f0 1.53 R1.0157 AL 2.52 WI 34.7 MW  4.1 3
 SPEC VIL SH Z T 3 133 K 0.000 GD  164 VS 4.20 DE 3.20 Q0300.0 QA 0.60 VS 4.20 3
 SPEC GUA SH Z MO 14.5 ST 15.9 OM  3.0 f0 3.37 R0.4611 AL 2.14 WI 14.8 MW  3.6 3
 SPEC GUA SH Z T 3 118 K 0.000 GD  142 VS 4.20 DE 3.20 Q0300.0 QA 0.60 VS 4.20 3
 ACTION:UPD 14-01-08 09:32 OP:ep   STATUS:               ID:20130416030023 L   I
 2013-04-16-0258-51M.COL___213                                                 6
 STAT SP IPHASW D HRMM SECON CODA AMPLIT PERI AZIMU VELO AIN AR TRES W  DIS CAZ7
 GUA  SZ EP        3 0 53.87                              56   -0.5410  203 227 
 GUA  SN ES   1    3 1 18.33                              56    0.13 7  203 227 
 GUA  SZ I         3 1 22.28      1186.1 0.42             47            203 227 
 VIL  SZ EP        3 1  3.38                              56    0.66 9  269 277 
 VIL  SE ES   1    3 1 33.06                              56    0.08 7  269 277 
 VIL  SZ I         3 1 40.69      1516.7 0.40             37            269 277 
 CHI  HZ EP        3 1  5.28                              56    0.11 9  286 289 
 CHI  HN ES   1    3 1 36.58                              56   -0.78 6  286 289 
 CHI  HZ I         3 1 39.22       529.0 0.32             37            286 289 
 TAM  HZ EP   1    3 1  6.12                              55    0.10 6  296 349 
 TAM  HN ES        3 1 39.34                              55    0.47 8  296 349 
 TAM  HZ I         3 2  4.38       332.7 0.44             36            296 349 
 RUS  HZ EP   1    3 1  7.27                              55   -0.33 6  304 319 
 RUS  HN ES   1    3 1 41.72                              55    0.05 6  304 319 
 RUS  HZ I         3 1 56.51       211.6 0.44             36            304 319 
 ROSC BZ EP   4    3 1 16.38                              55    2.67 0  355 289 
 ROSC BN ES   4    3 1 58.48                              55    5.93 0  355 289 
 ROSC BZ I         3 2 11.88       229.2 0.50             36            355 289 
 BAR2 SZ EP        3 1 15.15                              55   -0.55 7  373 326 
 BAR2 SZ ES   1    3 1 55.04                              55   -1.06 5  373 326 
 BAR2 SZ I         3 2 17.16       278.8 0.52             36            373 326 
 PRA  HZ EP        3 1 19.86                              55    1.11 7  399 269 
 PRA  HN ES   1    3 2  2.23                              55    0.70 5  399 269 
 PRA  HZ I         3 2 20.57       212.3 0.40             36            399 269 
 GIR2 SZ EP        3 1 21.21                              55   -0.08 6  419 330 
 GIR2 SZ I         3 2 21.99       155.1 0.46                           419 330 
 PAM  SZ EP   3    3 1 21.82                              55   -0.13 2  421 338 
 PAM  SZ I         3 2 24.18       160.7 0.34                           421 338 
 BRR  HZ EP        3 1 24.77                              55   -0.56 6  453 324 
 BRR  HE ES   1    3 2 13.66                              55    0.42 4  453 324 
 BRR  HZ I         3 2 32.52        60.2 0.48             36            453 324 
 PTB  HZ EP   1    3 1 27.37                              55    0.77 4  463 311 
 PTB  HZ I         3 2 33.07        46.0 0.44             36            463 311 
 MARA HZ EP   4    3 1 44.95                              55    9.91 0  529 259 
 MARA HN ES   4    3 2 44.93                              55   14.40 0  529 259 
 MARA HZ I         3 2 52.72        99.9 0.52             36            529 259 
 OCA  HZ EP   1    3 1 36.09                              55   -0.08 3  539 336 
 OCA  HN ES   4    3 2 30.67                              55   -1.86 0  539 336 
 OCA  HZ I         3 3  2.58        96.0 0.38             36            539 336 
 FLO2 HZ EP   4    3 1 37.79                              55    1.25 0  543 243 
 FLO2 HN ES   4    3 2 47.06                              55   13.87 0  543 243 
 FLO2 HZ I         3 3  0.71       162.0 0.52             36            543 243 
 YOT  HZ EP        3 1 38.12                              55   -0.75 4  561 272 
 YOT  HN ES   4    3 2 34.01                              55   -3.33 0  561 272 
 YOT  HZ I         3 3  2.73        56.4 0.60             36            561 272 
 PTLC HZ EP   4    3 1 40.16                              55   -1.79 0  587 222 
 PCON HZ EP   4    3 1 46.27                              55    3.28 0  590 254 
 PCON HN ES   4    3 3  5.75                              55   21.08 0  590 254 
 PCON HZ I         3 3 18.12       149.9 0.54             36            590 254 
 DBB  SZ EP        3 1 50.42                              55    0.61 3  650 303 
 DBB  SZ ES        3 2 55.24                              55   -1.57 3  650 303 
 DBB  SZ I         3 3  2.12        43.9 0.64             36            650 303 
                                                                                
 2013  419 1240 28.5 L   3.762 -71.406  4.1  RSN  7 0.9 3.4LRSN                1
 GAP=234        1.52       8.5    15.6 18.9 -0.8387E+02  0.2021E+03 -0.1170E+03E
 Epicentro: PUERTO GAITAN - META                                               3
 ACTION:UPD 14-01-08 09:33 OP:ep   STATUS:               ID:20130419124029 L   I
 2013-04-19-1238-51M.COL___215                                                 6
 STAT SP IPHASW D HRMM SECON CODA AMPLIT PERI AZIMU VELO AIN AR TRES W  DIS CAZ7
 GUA  SZ EPg      1240 57.68                              90   -0.4110  191 225 
 GUA  SN ES   1   1241 21.11                              56    0.70 7  191 225 
 GUA  SN I        1241 22.84       667.3 0.30             56            191 225 
 YOP  SZ EP       1240 59.95                              56   -0.0610  209 327 
 YOP  SN ES       1241 24.95                              56    0.3710  209 327 
 VIL  SZ EP       1241  6.98                              56    0.93 9  257 279 
 VIL  SE ES       1241 35.50                              56    0.18 9  257 279 
 VIL  SE I        1241 41.74       286.8 0.30             56            257 279 
 CHI  HZ EP       1241  8.28                              56   -0.41 9  275 290 
 CHI  HN ES       1241 39.66                              56   -0.38 9  275 290 
 CHI  HN I        1241 54.80       125.0 0.58             55            275 290 
 SJA  SZ EP   1   1241 10.20                              56    0.31 6  288 259 
 SJA  SZ I        1241 53.69        64.2 0.24             55            288 259 
 TAM  HZ EP   1   1241  9.58                              55   -1.55 6  299 352 
 TAM  HN ES   1   1241 46.79                              55    2.41 6  299 352 
 RUS  HZ EP       1241 11.34                              55   -0.52 8  300 322 
 RUS  HN ES       1241 44.69                              55   -0.99 8  300 322 
                                                                                
 2013  419 1257 33.0 L   3.813 -71.521  0.0  RSN  6 0.5 3.1LRSN                1
 GAP=274        0.96      18.5    19.9 18.9 -0.3434E+03  0.3473E+03 -0.3205E+03E
 Epicentro: PUERTO GAITAN - META                                               3
 ACTION:UPD 14-01-08 09:33 OP:ep   STATUS:               ID:20130419125733 L   I
 2013-04-19-1248-36M.COL___215                                                 6
 STAT SP IPHASW D HRMM SECON CODA AMPLIT PERI AZIMU VELO AIN AR TRES W  DIS CAZ7
 YOP  SZ EP       1258  2.92                              37   -0.8010  197 330 
 YOP  SN ES       1258 27.45                              37   -0.2410  197 330 
 VIL  SZ EP       1258  9.63                              37    0.13 9  244 278 
 VIL  SE ES       1258 38.31                              37    0.32 9  244 278 
 VIL  SN I        1258 53.65       169.3 0.50             37            244 278 
 CHI  HN ES       1258 42.40                              37   -0.20 9  262 290 
 RUS  HZ EP       1258 15.28                              37   -0.20 9  288 323 
 TAM  HZ EP       1258 15.47                              37    0.08 8  292 354 
 TAM  HN ES       1258 49.38                              37    0.90 8  292 354 
 TAM  HN I        1258 51.08        47.3 0.30             36            292 354 
 PRA  HZ EP       1258 26.08                              36    0.51 7  374 268 
                                                                                
 2013  420 0432 18.6 L   3.776 -71.285 12.0  RSN  7 0.8 2.6LRSN                1
 GAP=238        1.15       6.4    16.0 27.0 -0.5297E+02  0.3334E+03 -0.8020E+02E
 Epicentro: PUERTO GAITAN - META                                               3
 ACTION:UPD 14-01-08 09:33 OP:ep   STATUS:               ID:20130420043218 L   I
 2013-04-20-0430-00M.COL___250                                                 6
 STAT SP IPHASW D HRMM SECON CODA AMPLIT PERI AZIMU VELO AIN AR TRES W  DIS CAZ7
 GUA  SZ EP        432 48.15                              56   -0.2410  202 228 
 GUA  SN ES   1    433 11.72                              56    0.06 7  202 228 
 GUA  SZ I         433 14.32        73.5 0.18             37            202 228 
 YOP  SZ EP   1    432 49.72                              56   -0.44 7  215 324 
 YOP  SN ES   1    433 15.33                              56    0.52 7  215 324 
 YOP  SZ I         433 19.69        57.6 0.24             37            215 324 
 VIL  SZ EP        432 57.87                              56    0.82 9  270 278 
 VIL  SN ES   1    433 27.92                              56    0.86 7  270 278 
 VIL  SZ I         433 32.81        87.6 0.26             37            270 278 
 CHI  HN ES   1    433 29.53                              55   -2.02 6  288 289 
 CHI  HZ I         433 33.41        25.8 0.20             36            288 289 
 TAM  HZ EP        433  0.41                              55   -0.17 8  299 349 
 TAM  HN ES   2    433 33.76                              55    0.42 4  299 349 
 TAM  HZ I         433 42.56        14.8 0.44             36            299 349 
 RUS  HZ EP   1    433  2.11                              55   -0.01 6  307 320 
 RUS  HN ES   2    433 35.92                              55   -0.17 4  307 320 
 RUS  HZ I         433 51.32         8.3 0.30             36            307 320 
 PRA  HZ EP   4    433 13.90                              55    0.89 0  400 269 
 PRA  HN ES   3    433 57.39                              55    1.92 2  400 269 
 PAM  SZ EP   4    433 25.35                              55    8.84 0  424 338 
 PAM  SN ES   4    433 57.91                              55   -3.79 0  424 338 
                                                                                
 2013  424 1521 27.5 L   3.677 -71.507  0.6  RSN  6 0.7 2.9LRSN 3.0WRSN        1
 SPEC AVERAGE  MO 13.6 ST  1.5 OM  2.5 f0 2.93 R0.5488 AL 1.97 WI 20.1 MW  3.0 3
 SPEC SD       MO  0.2 ST  1.2 OM  0.6 f00.549 R0.1045 AL      WI      MW  0.1 3
 GAP=255        0.87       7.2    26.1 21.3 -0.1225E+03  0.4864E+03 -0.7464E+02E
 Epicentro: PUERTO GAITAN - META                                               3
 SPEC PAM SH Z MO 13.3 ST0.571 OM  1.6 f0 2.88 R0.5396 AL 1.71 WI 12.4 MW  2.8 3
 SPEC PAM SH Z T152320 K 0.000 GD  206 VS 4.20 DE 3.20 Q0300.0 QA 0.60 VS 4.20 3
 SPEC PRA HH Z MO 13.5 ST0.951 OM  1.8 f0 2.99 R0.5197 AL 2.33 WI 19.8 MW  2.9 3
 SPEC PRA HH Z T1523 9 K 0.000 GD  193 VS 4.20 DE 3.20 Q0300.0 QA 0.60 VS 4.20 3
 SPEC TAM HH Z MO 13.6 ST  1.5 OM  2.0 f0 3.06 R0.5078 AL 1.56 WI 16.7 MW  3.0 3
 SPEC TAM HH Z T152240 K 0.000 GD  175 VS 4.20 DE 3.20 Q0300.0 QA 0.60 VS 4.20 3
 SPEC RUS HH Z MO 13.4 ST0.291 OM  1.8 f0 2.09 R0.7435 AL 2.17 WI 19.0 MW  2.9 3
 SPEC RUS HH Z T152244 K 0.000 GD  173 VS 4.20 DE 3.20 Q0300.0 QA 0.60 VS 4.20 3
 SPEC VIL SH Z MO 14.0 ST  2.1 OM  2.4 f0 2.65 R0.5864 AL 2.48 WI 39.3 MW  3.3 3
 SPEC VIL SH Z T152229 K 0.000 GD  157 VS 4.20 DE 3.20 Q0300.0 QA 0.60 VS 4.20 3
 SPEC GUA SH Z MO 13.7 ST  3.7 OM  2.2 f0 3.93 R0.3954 AL 1.59 WI 13.2 MW  3.1 3
 SPEC GUA SH Z T152216 K 0.000 GD  133 VS 4.20 DE 3.20 Q0300.0 QA 0.60 VS 4.20 3
 ACTION:UPD 14-01-08 09:34 OP:ep   STATUS:               ID:20130424152127 L   I
 2013-04-24-1520-00M.COL___249                                                 6
 STAT SP IPHASW D HRMM SECON CODA AMPLIT PERI AZIMU VELO AIN AR TRES W  DIS CAZ7
 GUA  SZ EP   3   1521 53.88                              47   -1.50 3  177 225 
 GUA  SN ES   1   1522 17.21                              47    0.11 9  177 225 
 GUA  SZ I        1522 21.57       318.7 0.24             56            177 225 
 VIL  SZ EP   1   1522  5.09                              37    0.63 8  248 281 
 VIL  SN ES   1   1522 32.70                              37   -0.56 8  248 281 
 VIL  SZ I        1522 42.07       143.7 0.42             56            248 281 
 RUS  HZ EP       1522 11.92                              36    0.3610  301 325 
 RUS  HZ I        1522 55.62        22.7 0.42             55            301 325 
 TAM  HZ EP   4   1522  5.88                              36   -5.84 0  307 354 
 TAM  HN ES   4   1522 43.55                              36   -2.62 0  307 354 
 BAR2 SZ EP   4   1522 22.53                              36    2.50 0  372 330 
 BAR2 SZ ES   2   1523  0.28                              36   -0.68 4  372 330 
 BAR2 SZ I        1523 15.36        15.5 0.34             55            372 330 
 PRA  HZ EP       1522 19.53                              36   -0.68 9  375 271 
 PRA  HN ES   2   1523  2.76                              36    1.47 4  375 271 
 PRA  HZ I        1523 25.17        27.0 0.66             55            375 271 
 PAM  SZ EP   4   1522 30.68                              36    3.69 0  426 342 
 PAM  SE ES   4   1523  5.06                              36   -8.30 0  426 342 
 PAM  SZ I        1523 25.74        18.4 0.34             55            426 342 
                                                                                
 2013  426 0421 58.6 L   3.808 -71.219 20.0  RSN  7 0.7 2.8LRSN                1
 GAP=266        0.95       5.6    12.2  9.9 -0.9141E+01  0.6857E+02  0.5460E+01E
 Epicentro: OROCUE - CASANARE                                                  3
 ACTION:UPD 14-01-08 09:35 OP:ep   STATUS:               ID:20130426042159 L   I
 2013-04-26-0418-36M.COL___208                                                 6
 STAT SP IPHASW D HRMM SECON CODA AMPLIT PERI AZIMU VELO AIN AR TRES W  DIS CAZ7
 GUA  SZ EP   1    422 28.12                              56   -0.63 8  210 228 
 GUA  SN ES   1    422 52.21                              56   -0.04 8  210 228 
 GUA  SZ I         422 56.32        43.0 0.24             56            210 228 
 YOP  SZ EP   1    422 30.00                              56    0.25 8  217 322 
 YOP  SN ES   2    422 54.50                              56    0.47 6  217 322 
 YOP  SN I         423  2.42        56.3 0.20             56            217 322 
 VIL  SZ EP   1    422 37.78                              55    0.50 7  277 277 
 VIL  SN ES        423  7.59                              55    0.1710  277 277 
 VIL  SN I         423 21.70       250.7 0.48             55            277 277 
 TAM  HZ EP   4    422 44.29                              55    4.59 0  297 348 
 TAM  HN ES   4    423 17.19                              55    5.45 0  297 348 
 TAM  HN I         423 20.59        40.7 0.18             55            297 348 
 RUS  HZ EP   1    422 42.33                              55    0.57 7  310 318 
 RUS  HZ EPg       422 45.99                              93   -0.73 9  310 318 
 RUS  HN ES   2    423 15.52                              55    0.12 5  310 318 
 RUS  HN I         423 37.11        12.1 0.40             55            310 318 
 PRA  HZ EP   1    422 53.31                              55    0.02 6  407 269 
 PRA  HZ EPg       423  1.88                              92    0.82 8  407 269 
 PRA  HN ES   1    423 36.31                              55    0.38 6  407 269 
 NOR  HN ES   1    423 42.91                              55   -2.19 5  449 296 
                                                                                
